{
"type": "FeatureCollection",
"name": "احياء منطقة ابو نصير",
"crs": { "type": "name", "properties": { "name": "urn:ogc:def:crs:OGC:1.3:CRS84" } },
"features": [
{ "type": "Feature", "properties": { "tessellate": -1, "extrude": 0, "visibility": 0 }, "geometry": { "type": "Polygon", "coordinates": [ [ [ 35.8708726, 32.0462021, 0.0 ], [ 35.8716735, 32.0439393, 0.0 ], [ 35.873649, 32.0436225, 0.0 ], [ 35.8754643, 32.0457496, 0.0 ], [ 35.8758381, 32.0456138, 0.0 ], [ 35.8792552, 32.0447992, 0.0 ], [ 35.8813908, 32.0439393, 0.0 ], [ 35.8833664, 32.042491, 0.0 ], [ 35.8844876, 32.0423553, 0.0 ], [ 35.8841672, 32.0436678, 0.0 ], [ 35.8840605, 32.0457948, 0.0 ], [ 35.8837401, 32.0483744, 0.0 ], [ 35.8847012, 32.0501394, 0.0 ], [ 35.8839003, 32.0507277, 0.0 ], [ 35.8821383, 32.0513612, 0.0 ], [ 35.8795221, 32.051497, 0.0 ], [ 35.8769593, 32.0504561, 0.0 ], [ 35.8711929, 32.0467905, 0.0 ], [ 35.8708726, 32.0462021, 0.0 ] ] ] } },
{ "type": "Feature", "properties": { "tessellate": -1, "extrude": 0, "visibility": 0 }, "geometry": { "type": "Point", "coordinates": [ 35.8708726, 32.0423553, 0.0 ] } },
{ "type": "Feature", "properties": { "Name": "A2", "tessellate": -1, "extrude": 0, "visibility": -1 }, "geometry": { "type": "Polygon", "coordinates": [ [ [ 35.8820712, 32.0522828, 0.0 ], [ 35.88166360398651, 32.051560421641248, 0.0 ], [ 35.882851404247162, 32.051175360908921, 0.0 ], [ 35.883550118986889, 32.051038832417177, 0.0 ], [ 35.884212596477191, 32.050704182702091, 0.0 ], [ 35.8851794, 32.0515092, 0.0 ], [ 35.8859841, 32.0529365, 0.0 ], [ 35.8868747, 32.0537663, 0.0 ], [ 35.8865122, 32.0545904, 0.0 ], [ 35.8860549, 32.0544861, 0.0 ], [ 35.885471, 32.0549909, 0.0 ], [ 35.884551, 32.0551309, 0.0 ], [ 35.8840497, 32.0541262, 0.0 ], [ 35.8825753, 32.0530015, 0.0 ], [ 35.8822273, 32.0526666, 0.0 ], [ 35.882127, 32.0525116, 0.0 ], [ 35.8820712, 32.0522828, 0.0 ] ] ] } },
{ "type": "Feature", "properties": { "Name": "A3", "tessellate": -1, "extrude": 0, "visibility": -1 }, "geometry": { "type": "Polygon", "coordinates": [ [ [ 35.884290932784637, 32.057379560297818, 0.0 ], [ 35.882629816815601, 32.057947890614017, 0.0 ], [ 35.88137957253803, 32.058354325341682, 0.0 ], [ 35.880965963593397, 32.058611306836738, 0.0 ], [ 35.8800466, 32.0586777, 0.0 ], [ 35.880412225576457, 32.058000294039061, 0.0 ], [ 35.880401290558908, 32.057855270882527, 0.0 ], [ 35.880230204888143, 32.057693126834003, 0.0 ], [ 35.879902884817312, 32.057483554626877, 0.0 ], [ 35.8792529, 32.0570298, 0.0 ], [ 35.8797688, 32.0567832, 0.0 ], [ 35.879443165004453, 32.055592766255018, 0.0 ], [ 35.882676010510266, 32.054703011195478, 0.0 ], [ 35.883869319820263, 32.054027336947577, 0.0 ], [ 35.8847686, 32.0556846, 0.0 ], [ 35.8845967, 32.0562115, 0.0 ], [ 35.8845438, 32.0568617, 0.0 ], [ 35.884557, 32.0573101, 0.0 ], [ 35.884290932784637, 32.057379560297818, 0.0 ] ] ] } },
{ "type": "Feature", "properties": { "Name": "A4", "tessellate": -1, "extrude": 0, "visibility": -1 }, "geometry": { "type": "Polygon", "coordinates": [ [ [ 35.8842258, 32.0616419, 0.0 ], [ 35.8846484, 32.0552361, 0.0 ], [ 35.885509, 32.0550106, 0.0 ], [ 35.8860468, 32.0545602, 0.0 ], [ 35.8861506, 32.0547188, 0.0 ], [ 35.8866827, 32.055382, 0.0 ], [ 35.8881693, 32.0574112, 0.0 ], [ 35.8877781, 32.0586712, 0.0 ], [ 35.8869957, 32.0596128, 0.0 ], [ 35.8860724, 32.0606207, 0.0 ], [ 35.8860568, 32.0613236, 0.0 ], [ 35.8860568, 32.0613899, 0.0 ], [ 35.8842258, 32.0616419, 0.0 ] ] ] } },
{ "type": "Feature", "properties": { "Name": "A5", "tessellate": -1, "extrude": 0, "visibility": -1 }, "geometry": { "type": "Polygon", "coordinates": [ [ [ 35.884307651835357, 32.062423476149966, 0.0 ], [ 35.883429846789006, 32.062491871266303, 0.0 ], [ 35.882400993739573, 32.0624681421709, 0.0 ], [ 35.882339158662653, 32.061406464252258, 0.0 ], [ 35.882349485378477, 32.060133395303239, 0.0 ], [ 35.881369502772728, 32.059873954414407, 0.0 ], [ 35.880940482523798, 32.059181857469987, 0.0 ], [ 35.881128540731993, 32.058666218836187, 0.0 ], [ 35.882800331634542, 32.058019609552588, 0.0 ], [ 35.884437434137674, 32.057535276834123, 0.0 ], [ 35.884313417142053, 32.05894580500992, 0.0 ], [ 35.884223340744413, 32.060305245446663, 0.0 ], [ 35.884105436678901, 32.061299164948153, 0.0 ], [ 35.884223463636893, 32.06203207007421, 0.0 ], [ 35.884307651835357, 32.062423476149966, 0.0 ] ] ] } },
{ "type": "Feature", "properties": { "Name": "A6", "tessellate": -1, "extrude": 0, "visibility": -1 }, "geometry": { "type": "Polygon", "coordinates": [ [ [ 35.877053010530346, 32.052422521561368, 0.0 ], [ 35.876828304903498, 32.052640341595257, 0.0 ], [ 35.876590666168873, 32.052823252177589, 0.0 ], [ 35.876200327525908, 32.053051828227233, 0.0 ], [ 35.87552391910625, 32.053382400282473, 0.0 ], [ 35.875247549193958, 32.053533165427559, 0.0 ], [ 35.875116480218097, 32.053607604364068, 0.0 ], [ 35.874984782873192, 32.053702215546302, 0.0 ], [ 35.874859098298288, 32.053788919524791, 0.0 ], [ 35.874746337254457, 32.053885950919657, 0.0 ], [ 35.874514280865597, 32.054081187069073, 0.0 ], [ 35.874263513430577, 32.054426766991, 0.0 ], [ 35.874106468276139, 32.054312830294073, 0.0 ], [ 35.873919959625418, 32.054240870393478, 0.0 ], [ 35.873538937159459, 32.054271826922751, 0.0 ], [ 35.872872815684843, 32.054380519712353, 0.0 ], [ 35.872694936602542, 32.053672055308162, 0.0 ], [ 35.872469190168189, 32.052972646344571, 0.0 ], [ 35.872354841490342, 32.052546837649189, 0.0 ], [ 35.871008161057127, 32.052542049930999, 0.0 ], [ 35.871327242185338, 32.049678174246928, 0.0 ], [ 35.87135686643127, 32.048215121693893, 0.0 ], [ 35.871316104064128, 32.046736968011842, 0.0 ], [ 35.872874452467869, 32.048025254473643, 0.0 ], [ 35.873482540359987, 32.048481349136338, 0.0 ], [ 35.874218441567621, 32.048921200974959, 0.0 ], [ 35.87579707650449, 32.049823670453499, 0.0 ], [ 35.877309426422592, 32.050719336641833, 0.0 ], [ 35.877681165406209, 32.050937880310471, 0.0 ], [ 35.877866445628271, 32.051027252882427, 0.0 ], [ 35.877701413611859, 32.051386190288063, 0.0 ], [ 35.877623266974602, 32.051584064364491, 0.0 ], [ 35.877524470890719, 32.051776263452282, 0.0 ], [ 35.877361188736842, 32.05205036036844, 0.0 ], [ 35.87719539746216, 32.052278828212053, 0.0 ], [ 35.877053010530346, 32.052422521561368, 0.0 ] ] ] } },
{ "type": "Feature", "properties": { "Name": "A7", "tessellate": -1, "extrude": 0, "visibility": -1 }, "geometry": { "type": "Polygon", "coordinates": [ [ [ 35.875415465574093, 32.055788953475947, 0.0 ], [ 35.874838932133187, 32.055253504920451, 0.0 ], [ 35.874469747728376, 32.054643326453409, 0.0 ], [ 35.874262925181547, 32.054435956325932, 0.0 ], [ 35.87439851804907, 32.054239689782207, 0.0 ], [ 35.874544956054351, 32.054064393794889, 0.0 ], [ 35.8748492458868, 32.053801584536359, 0.0 ], [ 35.875178561256433, 32.053572711003213, 0.0 ], [ 35.875528406359457, 32.053384977705157, 0.0 ], [ 35.876185805824107, 32.053062514883408, 0.0 ], [ 35.876504891122273, 32.052883978052513, 0.0 ], [ 35.876809600920183, 32.052661493895883, 0.0 ], [ 35.877103297160431, 32.052381252171998, 0.0 ], [ 35.877315889200943, 32.052582263025357, 0.0 ], [ 35.877107507018437, 32.053006616842829, 0.0 ], [ 35.877912626796039, 32.053265394173067, 0.0 ], [ 35.877833558257663, 32.053489626617669, 0.0 ], [ 35.878607481310027, 32.053742021879273, 0.0 ], [ 35.87863649214912, 32.053752930282478, 0.0 ], [ 35.878673172530227, 32.053686791587253, 0.0 ], [ 35.878712351768762, 32.053594949905147, 0.0 ], [ 35.878795794058213, 32.053385447079947, 0.0 ], [ 35.879543157321343, 32.053676484195371, 0.0 ], [ 35.8791048, 32.0549557, 0.0 ], [ 35.8796527, 32.0565287, 0.0 ], [ 35.877127088832317, 32.056441751794353, 0.0 ], [ 35.875415465574093, 32.055788953475947, 0.0 ] ] ] } },
{ "type": "Feature", "properties": { "Name": "A8", "tessellate": -1, "extrude": 0, "visibility": -1 }, "geometry": { "type": "Polygon", "coordinates": [ [ [ 35.879944123756651, 32.058668763438732, 0.0 ], [ 35.879936533177677, 32.0587648297141, 0.0 ], [ 35.879592227323698, 32.058823421187213, 0.0 ], [ 35.879235316270069, 32.058797559646138, 0.0 ], [ 35.878871097958061, 32.05870640589761, 0.0 ], [ 35.878706985955453, 32.058596630893568, 0.0 ], [ 35.878454017647087, 32.058528264761947, 0.0 ], [ 35.87801750974247, 32.058533101839927, 0.0 ], [ 35.876892361404209, 32.058585722498982, 0.0 ], [ 35.876480894405198, 32.058607430927353, 0.0 ], [ 35.876144431723759, 32.058744319346502, 0.0 ], [ 35.875658478518773, 32.0584972315797, 0.0 ], [ 35.875152444352771, 32.058200588781418, 0.0 ], [ 35.874754683431632, 32.057913013379647, 0.0 ], [ 35.8745116, 32.0576816, 0.0 ], [ 35.874185489898117, 32.057243745664422, 0.0 ], [ 35.873992456741973, 32.056880918979992, 0.0 ], [ 35.873913155371241, 32.056609450389637, 0.0 ], [ 35.873830869400038, 32.056234823214453, 0.0 ], [ 35.873813987208287, 32.055985105511091, 0.0 ], [ 35.873805284456843, 32.055835834677048, 0.0 ], [ 35.873857118822677, 32.055381517571178, 0.0 ], [ 35.873935262754337, 32.055108001226323, 0.0 ], [ 35.874044815868039, 32.054833694142772, 0.0 ], [ 35.874264111295957, 32.054438447568103, 0.0 ], [ 35.874459712401489, 32.054642968190848, 0.0 ], [ 35.874692941212388, 32.055016805075347, 0.0 ], [ 35.874831645724512, 32.055263558656229, 0.0 ], [ 35.875409654457187, 32.055785957016219, 0.0 ], [ 35.877129495054227, 32.056449579572003, 0.0 ], [ 35.879671638245597, 32.056556053617697, 0.0 ], [ 35.879739452426954, 32.056759651959631, 0.0 ], [ 35.879431787057449, 32.056886121633092, 0.0 ], [ 35.879247287742203, 32.0569768286353, 0.0 ], [ 35.87923884940443, 32.057012300209593, 0.0 ], [ 35.879242031759283, 32.057030065572533, 0.0 ], [ 35.879243666866117, 32.057040266852567, 0.0 ], [ 35.879250565086757, 32.057049594197132, 0.0 ], [ 35.879332202309399, 32.05713232765649, 0.0 ], [ 35.879534009965553, 32.057277107344497, 0.0 ], [ 35.879972128717853, 32.057558343224493, 0.0 ], [ 35.880191714095197, 32.057694593596892, 0.0 ], [ 35.880350702301783, 32.057831468073992, 0.0 ], [ 35.880394282217139, 32.057891866901826, 0.0 ], [ 35.88040110858956, 32.057945322443238, 0.0 ], [ 35.880407934961973, 32.057998777984643, 0.0 ], [ 35.880340146853868, 32.058126059424197, 0.0 ], [ 35.880106662503053, 32.058383918203013, 0.0 ], [ 35.880011867056879, 32.058518865644999, 0.0 ], [ 35.879944123756651, 32.058668763438732, 0.0 ] ] ] } },
{ "type": "Feature", "properties": { "Name": "A9", "tessellate": -1, "extrude": 0, "visibility": -1 }, "geometry": { "type": "Polygon", "coordinates": [ [ [ 35.879390777867222, 32.068717606260357, 0.0 ], [ 35.8788516, 32.0681496, 0.0 ], [ 35.8776468, 32.0664419, 0.0 ], [ 35.8776468, 32.0653467, 0.0 ], [ 35.8784354, 32.0631934, 0.0 ], [ 35.8780849, 32.0618568, 0.0 ], [ 35.8809763, 32.0624694, 0.0 ], [ 35.8846562, 32.0627293, 0.0 ], [ 35.8856857, 32.0649012, 0.0 ], [ 35.885390755230191, 32.068241707760237, 0.0 ], [ 35.88465151165078, 32.06820901557721, 0.0 ], [ 35.882784935306432, 32.068188685022228, 0.0 ], [ 35.880982516330263, 32.068157465951487, 0.0 ], [ 35.880188086277023, 32.06831956541069, 0.0 ], [ 35.879390777867222, 32.068717606260357, 0.0 ] ] ] } },
{ "type": "Feature", "properties": { "Name": "حارة ابو زيتون", "tessellate": -1, "extrude": 0, "visibility": -1 }, "geometry": { "type": "Polygon", "coordinates": [ [ [ 35.874574996099142, 32.062436400407613, 0.0 ], [ 35.873656670852583, 32.061384790617844, 0.0 ], [ 35.873421523850674, 32.060892206988932, 0.0 ], [ 35.875155351015721, 32.058219590582439, 0.0 ], [ 35.877215026021332, 32.059655862909807, 0.0 ], [ 35.876263962224037, 32.060593860546213, 0.0 ], [ 35.875787397536307, 32.061011026058807, 0.0 ], [ 35.874574996099142, 32.062436400407613, 0.0 ] ] ] } },
{ "type": "Feature", "properties": { "Name": "الوريكات", "tessellate": -1, "extrude": 0, "visibility": -1 }, "geometry": { "type": "Polygon", "coordinates": [ [ [ 35.873604354098212, 32.068663258920317, 0.0 ], [ 35.873247316735771, 32.068348766728008, 0.0 ], [ 35.871554084347828, 32.066757168077892, 0.0 ], [ 35.870729973412338, 32.065687910339129, 0.0 ], [ 35.8703082, 32.0647155, 0.0 ], [ 35.870134776560029, 32.06440201155273, 0.0 ], [ 35.869998430076869, 32.064068193092112, 0.0 ], [ 35.869919498133989, 32.063424082018173, 0.0 ], [ 35.869983920546893, 32.061715244725193, 0.0 ], [ 35.870398973733529, 32.059394267563583, 0.0 ], [ 35.871053632891552, 32.059585190786663, 0.0 ], [ 35.87312658946837, 32.060325764177954, 0.0 ], [ 35.873632761058573, 32.060491727899937, 0.0 ], [ 35.873382065442627, 32.060865353324587, 0.0 ], [ 35.873637541416883, 32.061404942471221, 0.0 ], [ 35.874511448753772, 32.062463492837743, 0.0 ], [ 35.876226001820967, 32.064329232017997, 0.0 ], [ 35.875538732508623, 32.064745065017988, 0.0 ], [ 35.874419928720037, 32.065157253387241, 0.0 ], [ 35.874740483057927, 32.065609878826258, 0.0 ], [ 35.875055800979048, 32.066191197035756, 0.0 ], [ 35.875816535757679, 32.067174479893772, 0.0 ], [ 35.87680207626768, 32.068475237011349, 0.0 ], [ 35.877081352095217, 32.068872019056762, 0.0 ], [ 35.877200036869468, 32.069059314619849, 0.0 ], [ 35.877334178635749, 32.069234910025941, 0.0 ], [ 35.876811879805537, 32.069273440488857, 0.0 ], [ 35.876234477761074, 32.069153121434447, 0.0 ], [ 35.87567071306492, 32.069007965993173, 0.0 ], [ 35.874954148347648, 32.068800893391362, 0.0 ], [ 35.874492190075763, 32.068560931691017, 0.0 ], [ 35.873604354098212, 32.068663258920317, 0.0 ] ] ] } },
{ "type": "Feature", "properties": { "Name": "السوريين", "tessellate": -1, "extrude": 0, "visibility": -1 }, "geometry": { "type": "Polygon", "coordinates": [ [ [ 35.877370853705912, 32.072069219589309, 0.0 ], [ 35.873606785463032, 32.06867979584559, 0.0 ], [ 35.874490919722739, 32.068571489115882, 0.0 ], [ 35.874938613994907, 32.068806043798617, 0.0 ], [ 35.875875875961512, 32.069069366272352, 0.0 ], [ 35.876808497109081, 32.069288634585419, 0.0 ], [ 35.877362647931832, 32.069245011374079, 0.0 ], [ 35.876130644887773, 32.067531804380629, 0.0 ], [ 35.875086639142197, 32.06617751398263, 0.0 ], [ 35.874462887971561, 32.065173740982502, 0.0 ], [ 35.875557544068783, 32.064754701074833, 0.0 ], [ 35.876226823894903, 32.064332099179438, 0.0 ], [ 35.876504564903257, 32.064657240837647, 0.0 ], [ 35.876478221027583, 32.06486079468079, 0.0 ], [ 35.876554005607069, 32.06551359211376, 0.0 ], [ 35.876969037435103, 32.065623384228182, 0.0 ], [ 35.877505096147168, 32.066225849052792, 0.0 ], [ 35.877753871883527, 32.066713493289413, 0.0 ], [ 35.879423715240407, 32.069088538638873, 0.0 ], [ 35.880373545127433, 32.070036416288687, 0.0 ], [ 35.882556306588633, 32.071635569498717, 0.0 ], [ 35.8819083, 32.0719489, 0.0 ], [ 35.881382559702232, 32.072247102163701, 0.0 ], [ 35.879945458111543, 32.072529603770917, 0.0 ], [ 35.878840779402431, 32.072588566360409, 0.0 ], [ 35.877370853705912, 32.072069219589309, 0.0 ] ] ] } },
{ "type": "Feature", "properties": { "Name": "اللوسية", "tessellate": -1, "extrude": 0, "visibility": -1 }, "geometry": { "type": "Polygon", "coordinates": [ [ [ 35.887404779582681, 32.064944233259837, 0.0 ], [ 35.885636342372713, 32.064415641027047, 0.0 ], [ 35.884441558294021, 32.06234915360573, 0.0 ], [ 35.884300979309813, 32.061719594170611, 0.0 ], [ 35.8867012, 32.061534, 0.0 ], [ 35.8864716, 32.0603664, 0.0 ], [ 35.8880503, 32.0585906, 0.0 ], [ 35.8885669, 32.0574229, 0.0 ], [ 35.8864429, 32.0549902, 0.0 ], [ 35.8871031, 32.0536766, 0.0 ], [ 35.889292748531361, 32.054571523093998, 0.0 ], [ 35.890353672683169, 32.055118092318168, 0.0 ], [ 35.891265901255451, 32.055800880921751, 0.0 ], [ 35.8924993, 32.0580554, 0.0 ], [ 35.892987798041872, 32.058469722930873, 0.0 ], [ 35.891848981389437, 32.059574084064771, 0.0 ], [ 35.891626468520883, 32.059976930798094, 0.0 ], [ 35.89128026070582, 32.060821352492688, 0.0 ], [ 35.890992318438173, 32.061503542766957, 0.0 ], [ 35.890579206694547, 32.06209467836171, 0.0 ], [ 35.889710379216957, 32.062828185800967, 0.0 ], [ 35.888827185492801, 32.06351785751918, 0.0 ], [ 35.887893052546687, 32.064111886905117, 0.0 ], [ 35.887694400226529, 32.064405312395287, 0.0 ], [ 35.887404779582681, 32.064944233259837, 0.0 ] ] ] } },
{ "type": "Feature", "properties": { "Name": "البحرية", "tessellate": -1, "extrude": 0, "visibility": -1 }, "geometry": { "type": "Polygon", "coordinates": [ [ [ 35.895882808552052, 32.076602837586812, 0.0 ], [ 35.894027749603183, 32.075967168573023, 0.0 ], [ 35.894300869577052, 32.074150132761822, 0.0 ], [ 35.893263975915261, 32.073448604784318, 0.0 ], [ 35.890087531310471, 32.070936987040383, 0.0 ], [ 35.889125195939037, 32.071636039931107, 0.0 ], [ 35.88730885952485, 32.069848896946937, 0.0 ], [ 35.886688138292193, 32.069652776780998, 0.0 ], [ 35.887213864793083, 32.066981814160037, 0.0 ], [ 35.887555665317308, 32.065219741222577, 0.0 ], [ 35.887517219220101, 32.064891057601663, 0.0 ], [ 35.887798360115767, 32.064375814036417, 0.0 ], [ 35.890834146210643, 32.062010884974292, 0.0 ], [ 35.891256360031043, 32.061242735541107, 0.0 ], [ 35.891619687478553, 32.060278072464392, 0.0 ], [ 35.891813283269649, 32.059797568128801, 0.0 ], [ 35.892058495517297, 32.059385165146502, 0.0 ], [ 35.892646272666347, 32.058815062389201, 0.0 ], [ 35.893111072564999, 32.058477628940302, 0.0 ], [ 35.893201874061283, 32.058553939172583, 0.0 ], [ 35.89254096809119, 32.05903073668371, 0.0 ], [ 35.89216080546263, 32.059404804000337, 0.0 ], [ 35.891940546677482, 32.059832525866092, 0.0 ], [ 35.893765837129173, 32.060336983917203, 0.0 ], [ 35.893985733254091, 32.060871514249627, 0.0 ], [ 35.895033174775072, 32.061220907150762, 0.0 ], [ 35.895714648260522, 32.061923669232513, 0.0 ], [ 35.895783848466323, 32.062284471371363, 0.0 ], [ 35.895762835561982, 32.063002322955171, 0.0 ], [ 35.895803963441267, 32.063439406300873, 0.0 ], [ 35.893483590719299, 32.064473417696767, 0.0 ], [ 35.891476029952933, 32.065351048473033, 0.0 ], [ 35.890525242514663, 32.06567428545582, 0.0 ], [ 35.891515928369458, 32.068332249155112, 0.0 ], [ 35.891911200604113, 32.069109533679118, 0.0 ], [ 35.89269150362724, 32.070218940273811, 0.0 ], [ 35.894680905462486, 32.070685943677567, 0.0 ], [ 35.896604081923691, 32.072112844670073, 0.0 ], [ 35.897759967923513, 32.073835688262058, 0.0 ], [ 35.895882808552052, 32.076602837586812, 0.0 ] ] ] } },
{ "type": "Feature", "properties": { "Name": "محبة", "tessellate": -1, "extrude": 0, "visibility": -1 }, "geometry": { "type": "Polygon", "coordinates": [ [ [ 35.884050588623261, 32.050549856293813, 0.0 ], [ 35.883031952041748, 32.051117396118769, 0.0 ], [ 35.882258980125243, 32.051375050165809, 0.0 ], [ 35.881516392047622, 32.051576547134793, 0.0 ], [ 35.881193071402301, 32.051619471023713, 0.0 ], [ 35.880902936052472, 32.051658496340998, 0.0 ], [ 35.880474345876543, 32.05165530610951, 0.0 ], [ 35.879955591457843, 32.051638262956523, 0.0 ], [ 35.879450199130133, 32.051560709436593, 0.0 ], [ 35.878778189078233, 32.051388516872848, 0.0 ], [ 35.878228478187097, 32.0511424425885, 0.0 ], [ 35.877859113162373, 32.051016669122511, 0.0 ], [ 35.877749257148487, 32.050968310177723, 0.0 ], [ 35.876693483323002, 32.050359624184637, 0.0 ], [ 35.875332497282962, 32.049532597943227, 0.0 ], [ 35.873853870259559, 32.048686036163808, 0.0 ], [ 35.873507639463682, 32.048490537007318, 0.0 ], [ 35.873207055645651, 32.0482664562143, 0.0 ], [ 35.872744784002172, 32.047872531556152, 0.0 ], [ 35.872885728226279, 32.047764760862648, 0.0 ], [ 35.873070504188703, 32.047660270916921, 0.0 ], [ 35.873436271776228, 32.04749423833119, 0.0 ], [ 35.874699776086793, 32.046930160638077, 0.0 ], [ 35.875041052721613, 32.046501146489199, 0.0 ], [ 35.875198380128957, 32.046247520355678, 0.0 ], [ 35.875315215820322, 32.046025590475409, 0.0 ], [ 35.875356373407527, 32.045925375243577, 0.0 ], [ 35.875422571106078, 32.045852352575643, 0.0 ], [ 35.875502323354333, 32.045792463789233, 0.0 ], [ 35.876179258745857, 32.045567445159179, 0.0 ], [ 35.877003941461481, 32.045319035008752, 0.0 ], [ 35.878434311672038, 32.04495399112281, 0.0 ], [ 35.879139852805537, 32.046131118649591, 0.0 ], [ 35.879305258743138, 32.046364745332419, 0.0 ], [ 35.881172841771829, 32.045301775723779, 0.0 ], [ 35.881514752623062, 32.045132428843182, 0.0 ], [ 35.88219857681235, 32.044723592546219, 0.0 ], [ 35.882403582687409, 32.044999847022069, 0.0 ], [ 35.882367940265723, 32.045032206823556, 0.0 ], [ 35.882680562228153, 32.045551320023257, 0.0 ], [ 35.88212718208716, 32.045888031680583, 0.0 ], [ 35.882768150399578, 32.046477675463947, 0.0 ], [ 35.882830660366487, 32.046431514098543, 0.0 ], [ 35.883419822559162, 32.046784096404949, 0.0 ], [ 35.883840796687863, 32.046922450074128, 0.0 ], [ 35.883828534684348, 32.047528041743703, 0.0 ], [ 35.883810432122317, 32.048304620116767, 0.0 ], [ 35.883870596639973, 32.048711472608836, 0.0 ], [ 35.883980489102022, 32.049053951500213, 0.0 ], [ 35.88428461281061, 32.049614830880692, 0.0 ], [ 35.88439286309395, 32.049919799480861, 0.0 ], [ 35.884356399182202, 32.050016060333647, 0.0 ], [ 35.88427837281953, 32.050107195950197, 0.0 ], [ 35.884050588623261, 32.050549856293813, 0.0 ] ] ] } },
{ "type": "Feature", "properties": { "Name": "اسكان الحسن", "tessellate": -1, "extrude": 0, "visibility": -1 }, "geometry": { "type": "Polygon", "coordinates": [ [ [ 35.870996344324027, 32.052563097869033, 0.0 ], [ 35.872347738675067, 32.052566723323899, 0.0 ], [ 35.872685092151777, 32.053664391649818, 0.0 ], [ 35.872869204805262, 32.054392763612462, 0.0 ], [ 35.873517949201577, 32.054275781940518, 0.0 ], [ 35.873916694919572, 32.054243082251787, 0.0 ], [ 35.874102313436588, 32.054312617108508, 0.0 ], [ 35.874263906966277, 32.054435510048847, 0.0 ], [ 35.874134472022583, 32.054653399467199, 0.0 ], [ 35.874017558741272, 32.054889922120957, 0.0 ], [ 35.873926031102457, 32.055121970376213, 0.0 ], [ 35.873857986888737, 32.055380368883633, 0.0 ], [ 35.873520638136441, 32.055516167950231, 0.0 ], [ 35.87318944976753, 32.055687999016797, 0.0 ], [ 35.872524543569632, 32.056052974025071, 0.0 ], [ 35.871243512818197, 32.056758443058378, 0.0 ], [ 35.870803540697302, 32.056877627907838, 0.0 ], [ 35.870495574165901, 32.056867300782542, 0.0 ], [ 35.870396043649627, 32.056393052171558, 0.0 ], [ 35.870423020973249, 32.055807849478803, 0.0 ], [ 35.870582026925902, 32.054663611192282, 0.0 ], [ 35.870851968904446, 32.053636376222109, 0.0 ], [ 35.870996344324027, 32.052563097869033, 0.0 ] ] ] } },
{ "type": "Feature", "properties": { "Name": "رمضان", "tessellate": -1, "extrude": 0, "visibility": -1 }, "geometry": { "type": "Polygon", "coordinates": [ [ [ 35.873626216628587, 32.060447631296952, 0.0 ], [ 35.870368106660933, 32.059382136434166, 0.0 ], [ 35.870530176262591, 32.057792759053328, 0.0 ], [ 35.870499821706183, 32.056870322413218, 0.0 ], [ 35.870828609135373, 32.056886117142191, 0.0 ], [ 35.871239152166993, 32.056772913651059, 0.0 ], [ 35.872421430598749, 32.056124915783812, 0.0 ], [ 35.87314298063265, 32.055725126635402, 0.0 ], [ 35.873520943872563, 32.055516841824989, 0.0 ], [ 35.873850706390328, 32.055381699048091, 0.0 ], [ 35.873801902974073, 32.055832355549931, 0.0 ], [ 35.873825023371481, 32.056236667661189, 0.0 ], [ 35.873894527538241, 32.056563224618607, 0.0 ], [ 35.873992676655376, 32.05688448079465, 0.0 ], [ 35.874186626240437, 32.057254224040442, 0.0 ], [ 35.87439856291126, 32.057552359519207, 0.0 ], [ 35.874501438080017, 32.057681631334077, 0.0 ], [ 35.874758982385607, 32.05791833590564, 0.0 ], [ 35.875153435552797, 32.058216565182313, 0.0 ], [ 35.873626216628587, 32.060447631296952, 0.0 ] ] ] } },
{ "type": "Feature", "properties": { "Name": "حارة ابو صفية", "tessellate": -1, "extrude": 0, "visibility": -1 }, "geometry": { "type": "Polygon", "coordinates": [ [ [ 35.876272435566378, 32.064293573825687, 0.0 ], [ 35.875417895587169, 32.063399343217021, 0.0 ], [ 35.87459148509511, 32.062477849728211, 0.0 ], [ 35.877123687990377, 32.059763608948018, 0.0 ], [ 35.87785078063559, 32.061004661588584, 0.0 ], [ 35.878051514990823, 32.061716422027573, 0.0 ], [ 35.878187036286647, 32.06228683130005, 0.0 ], [ 35.87804709549188, 32.062427281861417, 0.0 ], [ 35.876272435566378, 32.064293573825687, 0.0 ] ] ] } },
{ "type": "Feature", "properties": { "Name": "حارة الوكيل", "tessellate": -1, "extrude": 0, "visibility": -1 }, "geometry": { "type": "Polygon", "coordinates": [ [ [ 35.877519704816748, 32.066217448064947, 0.0 ], [ 35.876986905313771, 32.0656039679888, 0.0 ], [ 35.876579096777512, 32.065492076147947, 0.0 ], [ 35.876501544244853, 32.064849732701539, 0.0 ], [ 35.876525841375077, 32.064679985169512, 0.0 ], [ 35.876433064361549, 32.064535847934572, 0.0 ], [ 35.876246792248878, 32.064318945662031, 0.0 ], [ 35.878185418711617, 32.06237605714378, 0.0 ], [ 35.878417428538498, 32.063170688930242, 0.0 ], [ 35.877609129514397, 32.065277598355173, 0.0 ], [ 35.877519704816748, 32.066217448064947, 0.0 ] ] ] } },
{ "type": "Feature", "properties": { "Name": "حارة 1", "tessellate": -1, "extrude": 0, "visibility": -1 }, "geometry": { "type": "Polygon", "coordinates": [ [ [ 35.883771483606097, 32.053956116267521, 0.0 ], [ 35.88316513793437, 32.054484737836063, 0.0 ], [ 35.881308240044703, 32.05507144327008, 0.0 ], [ 35.880971305671359, 32.054858070820011, 0.0 ], [ 35.880836072826398, 32.054295209345433, 0.0 ], [ 35.880887848775423, 32.054117249228383, 0.0 ], [ 35.882258423411507, 32.053638684174317, 0.0 ], [ 35.88276960506721, 32.053334062128513, 0.0 ], [ 35.883771483606097, 32.053956116267521, 0.0 ] ] ] } },
{ "type": "Feature", "properties": { "Name": "حار1 محيط المدارس", "tessellate": -1, "extrude": 0, "visibility": -1 }, "geometry": { "type": "Polygon", "coordinates": [ [ [ 35.880966286913008, 32.054933852674147, 0.0 ], [ 35.880106594297636, 32.055276259559328, 0.0 ], [ 35.879821089087557, 32.055579184988289, 0.0 ], [ 35.879354434379543, 32.055502988764751, 0.0 ], [ 35.87916565063103, 32.055072575699391, 0.0 ], [ 35.879902518105013, 32.053029599862867, 0.0 ], [ 35.880860347995188, 32.052961728417301, 0.0 ], [ 35.880985769954968, 32.053162963316502, 0.0 ], [ 35.881204896655078, 32.053879771212429, 0.0 ], [ 35.881207864573497, 32.053995530641608, 0.0 ], [ 35.880904823175392, 32.054089561464771, 0.0 ], [ 35.880788632428327, 32.054254940758618, 0.0 ], [ 35.880798080981229, 32.054629054644472, 0.0 ], [ 35.880966286913008, 32.054933852674147, 0.0 ] ] ] } },
{ "type": "Feature", "properties": { "Name": "محيط المركز الصحي حارة 1", "tessellate": -1, "extrude": 0, "visibility": -1 }, "geometry": { "type": "Polygon", "coordinates": [ [ [ 35.882789169308303, 32.05324109589705, 0.0 ], [ 35.881254592479792, 32.053912447575783, 0.0 ], [ 35.880767869715868, 32.052745539678163, 0.0 ], [ 35.881439503577013, 32.05296214018626, 0.0 ], [ 35.881563344318288, 32.052922859916713, 0.0 ], [ 35.881683855983212, 32.052766676760029, 0.0 ], [ 35.881997300414973, 32.052404904555772, 0.0 ], [ 35.882789169308303, 32.05324109589705, 0.0 ] ] ] } },
{ "type": "Feature", "properties": { "Name": "B4", "tessellate": -1, "extrude": 0, "visibility": -1 }, "geometry": { "type": "Polygon", "coordinates": [ [ [ 35.881307774979867, 32.060145746170448, 0.0 ], [ 35.881279268154287, 32.060419608840142, 0.0 ], [ 35.880865498783528, 32.0605906545468, 0.0 ], [ 35.880107942200603, 32.060710259844122, 0.0 ], [ 35.879478268401421, 32.060603531951386, 0.0 ], [ 35.878995678754379, 32.06031382291178, 0.0 ], [ 35.878914348278833, 32.059968266493613, 0.0 ], [ 35.878951825102909, 32.059610648029548, 0.0 ], [ 35.879021757590607, 32.059122906774377, 0.0 ], [ 35.878968021836037, 32.058785866196857, 0.0 ], [ 35.87947870269376, 32.058823941017643, 0.0 ], [ 35.879942374098093, 32.058796697661023, 0.0 ], [ 35.879963839969093, 32.05866900923283, 0.0 ], [ 35.881025208352654, 32.058651292200082, 0.0 ], [ 35.880872153530959, 32.059129821690007, 0.0 ], [ 35.880984035117827, 32.059347196441529, 0.0 ], [ 35.8813176935532, 32.059911773298758, 0.0 ], [ 35.881307774979867, 32.060145746170448, 0.0 ] ] ] } },
{ "type": "Feature", "properties": { "Name": "لفة الجبل", "tessellate": -1, "extrude": 0, "visibility": -1 }, "geometry": { "type": "Polygon", "coordinates": [ [ [ 35.878889115289553, 32.060316689253753, 0.0 ], [ 35.879473597211337, 32.060661678110442, 0.0 ], [ 35.880153602184137, 32.060762609555049, 0.0 ], [ 35.880845920097912, 32.060661387039673, 0.0 ], [ 35.881293099548223, 32.060467639991671, 0.0 ], [ 35.881420528329187, 32.059962772782519, 0.0 ], [ 35.882256270263767, 32.060235603604873, 0.0 ], [ 35.882244379861007, 32.062375206098253, 0.0 ], [ 35.880375322357928, 32.062296461401218, 0.0 ], [ 35.878111209718568, 32.061438008523467, 0.0 ], [ 35.877334655114318, 32.059861181057393, 0.0 ], [ 35.876229089352151, 32.058801423561228, 0.0 ], [ 35.876591250244182, 32.058621484950002, 0.0 ], [ 35.8777543677433, 32.058585599354942, 0.0 ], [ 35.878519899122928, 32.058560687582833, 0.0 ], [ 35.878806043943683, 32.058733341057483, 0.0 ], [ 35.878960946623003, 32.058935747032777, 0.0 ], [ 35.878984748611188, 32.059338492345887, 0.0 ], [ 35.878853466930138, 32.059720969286197, 0.0 ], [ 35.878889115289553, 32.060316689253753, 0.0 ] ] ] } },
{ "type": "Feature", "properties": { "Name": "الخمايسة", "tessellate": -1, "extrude": 0, "visibility": -1 }, "geometry": { "type": "Polygon", "coordinates": [ [ [ 35.882592765085832, 32.071577647106032, 0.0 ], [ 35.881174973073783, 32.070511257367627, 0.0 ], [ 35.880586904973008, 32.070121912769658, 0.0 ], [ 35.880122952265538, 32.069719862387288, 0.0 ], [ 35.879424156234947, 32.069072684595263, 0.0 ], [ 35.879282771330629, 32.068801325861273, 0.0 ], [ 35.880243493849967, 32.068357218829668, 0.0 ], [ 35.881038543758002, 32.068176274673633, 0.0 ], [ 35.882325419155698, 32.06819602441329, 0.0 ], [ 35.885409493503523, 32.068298275006839, 0.0 ], [ 35.88549286116718, 32.069362309375343, 0.0 ], [ 35.884940887689332, 32.070229757894722, 0.0 ], [ 35.88368825911067, 32.070918459668732, 0.0 ], [ 35.882592765085832, 32.071577647106032, 0.0 ] ] ] } },
{ "type": "Feature", "properties": { "Name": "السيل", "tessellate": -1, "extrude": 0, "visibility": -1 }, "geometry": { "type": "Polygon", "coordinates": [ [ [ 35.8928356550541, 32.076618856583593, 0.0 ], [ 35.889714958462037, 32.077028943093417, 0.0 ], [ 35.887346694865357, 32.075413348685693, 0.0 ], [ 35.8871572418658, 32.074246820610171, 0.0 ], [ 35.886418762176618, 32.073622342037901, 0.0 ], [ 35.88626905646521, 32.073511312900202, 0.0 ], [ 35.885759308889781, 32.073722143452251, 0.0 ], [ 35.885423921485931, 32.073684398023808, 0.0 ], [ 35.884819576665862, 32.072997860244158, 0.0 ], [ 35.884335750416618, 32.07313532812995, 0.0 ], [ 35.883541191419681, 32.073142841532871, 0.0 ], [ 35.883027459913251, 32.07308125186912, 0.0 ], [ 35.882511849859682, 32.072953128742341, 0.0 ], [ 35.882411235111732, 32.07254310113666, 0.0 ], [ 35.882438589621898, 32.072185750603524, 0.0 ], [ 35.882715915453737, 32.072023456693813, 0.0 ], [ 35.883212018526741, 32.071871634810847, 0.0 ], [ 35.882912396464917, 32.071596095100979, 0.0 ], [ 35.883507540560181, 32.071167630621581, 0.0 ], [ 35.885021486765787, 32.070314733898989, 0.0 ], [ 35.885461916876693, 32.06945701364431, 0.0 ], [ 35.88732813611859, 32.069883044555013, 0.0 ], [ 35.887646734254517, 32.070356180755986, 0.0 ], [ 35.889195001085653, 32.071789152274327, 0.0 ], [ 35.890144311873762, 32.071043154356758, 0.0 ], [ 35.894163146314852, 32.074181953046399, 0.0 ], [ 35.893947334059249, 32.075877405797208, 0.0 ], [ 35.8928356550541, 32.076618856583593, 0.0 ] ] ] } },
{ "type": "Feature", "properties": { "Name": "مضلّع بلا عنوان", "tessellate": -1, "extrude": 0, "visibility": -1 }, "geometry": { "type": "Polygon", "coordinates": [ [ [ 35.888140091012851, 32.076816929433882, 0.0 ], [ 35.883850914803517, 32.07839186755438, 0.0 ], [ 35.881524249772497, 32.072269639075387, 0.0 ], [ 35.882131008214238, 32.071987497721373, 0.0 ], [ 35.882811305452897, 32.071669212623611, 0.0 ], [ 35.883076034621702, 32.071837935960318, 0.0 ], [ 35.882360957246533, 32.072214137002327, 0.0 ], [ 35.882598856417466, 32.073018991427872, 0.0 ], [ 35.883375752652, 32.073132735778501, 0.0 ], [ 35.884911850612809, 32.07304661049286, 0.0 ], [ 35.885587521835781, 32.073798753093641, 0.0 ], [ 35.886247522491047, 32.073578730615303, 0.0 ], [ 35.887145025158127, 32.074239016901117, 0.0 ], [ 35.887556665839988, 32.075538471865272, 0.0 ], [ 35.888073870172107, 32.075931458309888, 0.0 ], [ 35.888140091012851, 32.076816929433882, 0.0 ] ] ] } },
{ "type": "Feature", "properties": { "Name": "التنقية", "tessellate": -1, "extrude": 0, "visibility": -1 }, "geometry": { "type": "Polygon", "coordinates": [ [ [ 35.886651461200252, 32.069618928208342, 0.0 ], [ 35.885561925326833, 32.069455476224768, 0.0 ], [ 35.88553759303872, 32.068271449264302, 0.0 ], [ 35.885808554452453, 32.064764842510733, 0.0 ], [ 35.885625265595159, 32.064498512981963, 0.0 ], [ 35.887461254058962, 32.064984915122977, 0.0 ], [ 35.886651461200252, 32.069618928208342, 0.0 ] ] ] } },
{ "type": "Feature", "properties": { "Name": "السوق التجاري", "tessellate": -1, "extrude": 0, "visibility": -1 }, "geometry": { "type": "Polygon", "coordinates": [ [ [ 35.88163945142594, 32.051757473368248, 0.0 ], [ 35.881973891435393, 32.05234176982016, 0.0 ], [ 35.881779681091103, 32.052603152368711, 0.0 ], [ 35.88155886718306, 32.052939521933773, 0.0 ], [ 35.880677957791768, 32.052631416570733, 0.0 ], [ 35.880120414603113, 32.052410195246047, 0.0 ], [ 35.879588091238062, 32.053662000022371, 0.0 ], [ 35.879169217067577, 32.053521010695249, 0.0 ], [ 35.878786314145373, 32.053378331403962, 0.0 ], [ 35.878698531717141, 32.053606893056248, 0.0 ], [ 35.878634784149, 32.053744228027512, 0.0 ], [ 35.877839677999887, 32.053482454619271, 0.0 ], [ 35.877922457093007, 32.053261634818838, 0.0 ], [ 35.877133461106673, 32.053005435095429, 0.0 ], [ 35.877327303568592, 32.052581474775408, 0.0 ], [ 35.877108318243202, 32.052374677936903, 0.0 ], [ 35.877247013318588, 32.052216958873743, 0.0 ], [ 35.87736688641052, 32.052053275906857, 0.0 ], [ 35.877529906614782, 32.051783760281722, 0.0 ], [ 35.877628102851972, 32.051582039454729, 0.0 ], [ 35.877711045841089, 32.051376158469182, 0.0 ], [ 35.877873908733207, 32.051024974434213, 0.0 ], [ 35.878083748582938, 32.051095136886367, 0.0 ], [ 35.878424557103827, 32.051241448116542, 0.0 ], [ 35.878749384294871, 32.051393443797927, 0.0 ], [ 35.879454601262651, 32.051581196191862, 0.0 ], [ 35.880152728954293, 32.051660677694272, 0.0 ], [ 35.880914846170633, 32.051665677830663, 0.0 ], [ 35.881199440600547, 32.051630813910073, 0.0 ], [ 35.881549277299243, 32.05158343233613, 0.0 ], [ 35.88163945142594, 32.051757473368248, 0.0 ] ] ] } },
{ "type": "Feature", "properties": { "Name": "حي نزول البقعة", "tessellate": -1, "extrude": 0, "visibility": -1 }, "geometry": { "type": "Polygon", "coordinates": [ [ [ 35.884129533411553, 32.07858503001453, 0.0 ], [ 35.883833227303597, 32.079478778385713, 0.0 ], [ 35.882370132303713, 32.079780353753897, 0.0 ], [ 35.880890085410279, 32.07583873585174, 0.0 ], [ 35.879254768224683, 32.076188587329781, 0.0 ], [ 35.878893654737261, 32.076001677595492, 0.0 ], [ 35.878558692949227, 32.074097313303369, 0.0 ], [ 35.877485826259431, 32.072625957485677, 0.0 ], [ 35.877210170762901, 32.07219518322259, 0.0 ], [ 35.878823301975658, 32.07263689663759, 0.0 ], [ 35.880189255737477, 32.072521495587743, 0.0 ], [ 35.881506569217237, 32.072289737862413, 0.0 ], [ 35.884129533411553, 32.07858503001453, 0.0 ] ] ] } }
]
}
