{
"type": "FeatureCollection",
"name": "احياء منطقة الجبيهة",
"crs": { "type": "name", "properties": { "name": "urn:ogc:def:crs:OGC:1.3:CRS84" } },
"features": [
{ "type": "Feature", "properties": { "Name": "عمر اللوزي", "tessellate": -1, "extrude": 0, "visibility": -1 }, "geometry": { "type": "Polygon", "coordinates": [ [ [ 35.871433389239037, 32.029553648227903, 0.0 ], [ 35.870648109202563, 32.031310190379287, 0.0 ], [ 35.869855186870829, 32.032990756855071, 0.0 ], [ 35.869405810575458, 32.03372492001521, 0.0 ], [ 35.868842322521317, 32.034407276414171, 0.0 ], [ 35.868146154612198, 32.035239420881332, 0.0 ], [ 35.86710324414048, 32.036324658375989, 0.0 ], [ 35.866715615976268, 32.036703028548636, 0.0 ], [ 35.866282420692649, 32.036925317933083, 0.0 ], [ 35.86546681816283, 32.037260156651222, 0.0 ], [ 35.865188258224897, 32.037229534188782, 0.0 ], [ 35.864901609301363, 32.03703666616498, 0.0 ], [ 35.864739325161231, 32.036606536559368, 0.0 ], [ 35.864066698631163, 32.034940012284899, 0.0 ], [ 35.863554323694864, 32.033767830264388, 0.0 ], [ 35.863261460856378, 32.032580748670199, 0.0 ], [ 35.863158369565447, 32.032058883700721, 0.0 ], [ 35.863055173052402, 32.030732280388392, 0.0 ], [ 35.86301155933706, 32.029811699613397, 0.0 ], [ 35.862980803283421, 32.029125450734099, 0.0 ], [ 35.863025061269788, 32.028870577029707, 0.0 ], [ 35.863343278695943, 32.028866303974397, 0.0 ], [ 35.866027958891138, 32.02880225292995, 0.0 ], [ 35.867272966036403, 32.028755619827322, 0.0 ], [ 35.868239423368728, 32.028767754216773, 0.0 ], [ 35.868910960851963, 32.028879135076757, 0.0 ], [ 35.869641672670987, 32.029042845823298, 0.0 ], [ 35.871433389239037, 32.029553648227903, 0.0 ] ] ] } },
{ "type": "Feature", "properties": { "Name": "المخابرات", "tessellate": -1, "extrude": 0, "visibility": -1 }, "geometry": { "type": "Polygon", "coordinates": [ [ [ 35.865282695023822, 32.037346290465898, 0.0 ], [ 35.866582171137352, 32.036932655330013, 0.0 ], [ 35.868474905851571, 32.03720236700336, 0.0 ], [ 35.870343003100032, 32.037344549211603, 0.0 ], [ 35.870237669732617, 32.036860329315139, 0.0 ], [ 35.871543681861922, 32.037199451690043, 0.0 ], [ 35.876700246830481, 32.038110876986472, 0.0 ], [ 35.879493781423633, 32.039306430395143, 0.0 ], [ 35.880985336405097, 32.039905461891209, 0.0 ], [ 35.881700997624058, 32.040218677526418, 0.0 ], [ 35.882122582541527, 32.040417134185176, 0.0 ], [ 35.879659858123823, 32.041264293873198, 0.0 ], [ 35.874450814636269, 32.042524207429778, 0.0 ], [ 35.873145554968268, 32.043158153918228, 0.0 ], [ 35.872169342681673, 32.043881459670132, 0.0 ], [ 35.87166065211818, 32.044398621743511, 0.0 ], [ 35.871171601823001, 32.04472186246943, 0.0 ], [ 35.870815248078642, 32.044779261439928, 0.0 ], [ 35.870455011735693, 32.044771904295438, 0.0 ], [ 35.870198856244492, 32.044701024148431, 0.0 ], [ 35.869865462690058, 32.044434960817632, 0.0 ], [ 35.869411886293463, 32.043653236266508, 0.0 ], [ 35.868963913732138, 32.042633033265531, 0.0 ], [ 35.868547562946389, 32.04138848884029, 0.0 ], [ 35.86791977530698, 32.04054919535762, 0.0 ], [ 35.866989296643681, 32.039898111704211, 0.0 ], [ 35.865695027127401, 32.039007512121209, 0.0 ], [ 35.865428324218982, 32.038135385271111, 0.0 ], [ 35.865283783323989, 32.037646075966023, 0.0 ], [ 35.865282695023822, 32.037346290465898, 0.0 ] ] ] } },
{ "type": "Feature", "properties": { "Name": "لفة الوزير", "tessellate": -1, "extrude": 0, "visibility": -1 }, "geometry": { "type": "Polygon", "coordinates": [ [ [ 35.878067462009412, 32.031473780668087, 0.0 ], [ 35.875125971912603, 32.037815948571023, 0.0 ], [ 35.872094141806521, 32.037262427393529, 0.0 ], [ 35.870227772410452, 32.036787478864561, 0.0 ], [ 35.870181940460753, 32.036783454326049, 0.0 ], [ 35.870311522531267, 32.037327640932673, 0.0 ], [ 35.868859489647321, 32.037220833397939, 0.0 ], [ 35.868488798708768, 32.037192931436522, 0.0 ], [ 35.867999419830532, 32.037122802786698, 0.0 ], [ 35.867364791403801, 32.037030722060123, 0.0 ], [ 35.866685365511458, 32.036935381030503, 0.0 ], [ 35.866590411454382, 32.036874624855301, 0.0 ], [ 35.866642708463402, 32.036789151608978, 0.0 ], [ 35.86680103076457, 32.036692958101469, 0.0 ], [ 35.867025002294064, 32.036460010488689, 0.0 ], [ 35.868132743284193, 32.035321757552609, 0.0 ], [ 35.869451335866202, 32.033749308700393, 0.0 ], [ 35.870025223497969, 32.032767341137472, 0.0 ], [ 35.871483708383252, 32.029578685154803, 0.0 ], [ 35.87605416291553, 32.030906614821383, 0.0 ], [ 35.878067462009412, 32.031473780668087, 0.0 ] ] ] } },
{ "type": "Feature", "properties": { "Name": "لفة جبران", "tessellate": -1, "extrude": 0, "visibility": -1 }, "geometry": { "type": "Polygon", "coordinates": [ [ [ 35.878193762041782, 32.031509295997871, 0.0 ], [ 35.879496075755043, 32.031747756694251, 0.0 ], [ 35.880814500227132, 32.031830484665051, 0.0 ], [ 35.882213180476469, 32.031774208069002, 0.0 ], [ 35.882646314303877, 32.031711985681738, 0.0 ], [ 35.884316568384527, 32.031442760397688, 0.0 ], [ 35.886040288979217, 32.030884615840897, 0.0 ], [ 35.887231850749451, 32.030329690815933, 0.0 ], [ 35.8881413932329, 32.0327962704322, 0.0 ], [ 35.888115144940663, 32.034014337496657, 0.0 ], [ 35.888118294698351, 32.034880937695483, 0.0 ], [ 35.888460761186941, 32.035568361522138, 0.0 ], [ 35.88887736732319, 32.036336442986681, 0.0 ], [ 35.888801276369392, 32.036632371838941, 0.0 ], [ 35.889310924343008, 32.0366876129955, 0.0 ], [ 35.889555618521278, 32.038115226624463, 0.0 ], [ 35.884290958859843, 32.039837146335387, 0.0 ], [ 35.882741412551148, 32.040287313082743, 0.0 ], [ 35.882228728674342, 32.040418467871547, 0.0 ], [ 35.876653568931552, 32.038015937100333, 0.0 ], [ 35.875307388013098, 32.037779128591197, 0.0 ], [ 35.878193762041782, 32.031509295997871, 0.0 ] ] ] } },
{ "type": "Feature", "properties": { "Name": "لفة مدارس الرواد", "tessellate": -1, "extrude": 0, "visibility": -1 }, "geometry": { "type": "Polygon", "coordinates": [ [ [ 35.889344004119202, 32.036640946435043, 0.0 ], [ 35.888846280705053, 32.036614145303311, 0.0 ], [ 35.888931605869082, 32.036347405583392, 0.0 ], [ 35.888445344033691, 32.035512605791901, 0.0 ], [ 35.888164891307248, 32.034878066668057, 0.0 ], [ 35.888152064076451, 32.033950591760757, 0.0 ], [ 35.88815796200651, 32.032716848189253, 0.0 ], [ 35.887724405284871, 32.031584223286579, 0.0 ], [ 35.887322711433349, 32.030308994375737, 0.0 ], [ 35.887680546068211, 32.030143716121302, 0.0 ], [ 35.888371500947983, 32.029784606329017, 0.0 ], [ 35.889245335511433, 32.029350737439337, 0.0 ], [ 35.890375933153081, 32.029072642843047, 0.0 ], [ 35.89105946523933, 32.029051997609173, 0.0 ], [ 35.891686395803532, 32.029187082976669, 0.0 ], [ 35.89235945834595, 32.02943046204539, 0.0 ], [ 35.893131772151378, 32.029880643825862, 0.0 ], [ 35.893650446933073, 32.030300653977783, 0.0 ], [ 35.894004338477693, 32.031224419514913, 0.0 ], [ 35.894056028108132, 32.032088223115721, 0.0 ], [ 35.89402676647795, 32.033299028934778, 0.0 ], [ 35.893921655870408, 32.034053323444077, 0.0 ], [ 35.89375664838294, 32.034654943091432, 0.0 ], [ 35.893457802338091, 32.035272833825488, 0.0 ], [ 35.892983748857283, 32.035890700364398, 0.0 ], [ 35.892519428173777, 32.036445789530752, 0.0 ], [ 35.891761976207988, 32.037066547405608, 0.0 ], [ 35.890663131582478, 32.037596324958223, 0.0 ], [ 35.889552401391207, 32.038049861924868, 0.0 ], [ 35.889344004119202, 32.036640946435043, 0.0 ] ] ] } },
{ "type": "Feature", "properties": { "Name": "المغنطيس", "tessellate": -1, "extrude": 0, "visibility": -1 }, "geometry": { "type": "Polygon", "coordinates": [ [ [ 35.8906075750781, 32.028875271448563, 0.0 ], [ 35.889604066354181, 32.029169233317504, 0.0 ], [ 35.889035215493138, 32.029395552466298, 0.0 ], [ 35.888116442624003, 32.029821377918068, 0.0 ], [ 35.887214953750991, 32.030259606973111, 0.0 ], [ 35.886584879313787, 32.030573955103698, 0.0 ], [ 35.885955540161767, 32.030843565180639, 0.0 ], [ 35.885464911295898, 32.031013523297368, 0.0 ], [ 35.88495793789356, 32.031174292007428, 0.0 ], [ 35.884334173996393, 32.031358585952447, 0.0 ], [ 35.883304806556197, 32.031557825931401, 0.0 ], [ 35.882859287120723, 32.031616066420277, 0.0 ], [ 35.882476635134921, 32.031665130346113, 0.0 ], [ 35.882406897123452, 32.031000389199718, 0.0 ], [ 35.882359245708479, 32.030638883827578, 0.0 ], [ 35.882313994720377, 32.030268958061143, 0.0 ], [ 35.882148487483768, 32.029023557471113, 0.0 ], [ 35.882105662075332, 32.028513094434977, 0.0 ], [ 35.882006669346232, 32.026959790381547, 0.0 ], [ 35.882757947735968, 32.025842238552762, 0.0 ], [ 35.885016354377633, 32.023261336791784, 0.0 ], [ 35.886113239556423, 32.021672950623042, 0.0 ], [ 35.886170215675982, 32.021523455154757, 0.0 ], [ 35.886392534872208, 32.021605542080827, 0.0 ], [ 35.891657311040078, 32.02506693882183, 0.0 ], [ 35.892043362001033, 32.025395521789129, 0.0 ], [ 35.892134841909979, 32.025780877361932, 0.0 ], [ 35.892248921910948, 32.026563809897013, 0.0 ], [ 35.892212246124963, 32.02713200963327, 0.0 ], [ 35.892076120846149, 32.027449849091468, 0.0 ], [ 35.891747635701847, 32.027815727355808, 0.0 ], [ 35.891507282295287, 32.028196370375397, 0.0 ], [ 35.891335933932929, 32.028444582148502, 0.0 ], [ 35.891095460712393, 32.028628377225068, 0.0 ], [ 35.8906075750781, 32.028875271448563, 0.0 ] ] ] } },
{ "type": "Feature", "properties": { "Name": "لفة مسجد البيان", "tessellate": -1, "extrude": 0, "visibility": -1 }, "geometry": { "type": "Polygon", "coordinates": [ [ [ 35.881942044143237, 32.026828403451312, 0.0 ], [ 35.881861356538863, 32.023458842983509, 0.0 ], [ 35.881833173373977, 32.019189581148581, 0.0 ], [ 35.882147411061673, 32.019042565910382, 0.0 ], [ 35.882496787714601, 32.019167472441417, 0.0 ], [ 35.886142381740797, 32.021523171056202, 0.0 ], [ 35.884960079482809, 32.023144833254101, 0.0 ], [ 35.884255640133233, 32.024029736769563, 0.0 ], [ 35.882713402263342, 32.025759996844407, 0.0 ], [ 35.881942044143237, 32.026828403451312, 0.0 ] ] ] } },
{ "type": "Feature", "properties": { "Name": "الكلية الاسلامية", "tessellate": -1, "extrude": 0, "visibility": -1 }, "geometry": { "type": "Polygon", "coordinates": [ [ [ 35.891947601824768, 32.02493743326616, 0.0 ], [ 35.89175435234371, 32.024958514474719, 0.0 ], [ 35.89147655492134, 32.024853758028563, 0.0 ], [ 35.890868665926661, 32.024460971029903, 0.0 ], [ 35.889594008867341, 32.023659933422643, 0.0 ], [ 35.886416265677227, 32.021593159609267, 0.0 ], [ 35.886170429388173, 32.021511043329284, 0.0 ], [ 35.886355126877653, 32.021297963677057, 0.0 ], [ 35.886469161436182, 32.021100765854491, 0.0 ], [ 35.887125504924882, 32.020078277526743, 0.0 ], [ 35.888881958158237, 32.017575967911419, 0.0 ], [ 35.8891175357235, 32.0172380503721, 0.0 ], [ 35.889569260477181, 32.01672328388684, 0.0 ], [ 35.889751340821917, 32.016458108169523, 0.0 ], [ 35.890070534271437, 32.016389544787387, 0.0 ], [ 35.890302746681677, 32.016337523909591, 0.0 ], [ 35.891051765082857, 32.016052404844103, 0.0 ], [ 35.894290212407782, 32.014501098900659, 0.0 ], [ 35.896489067049288, 32.013046828497892, 0.0 ], [ 35.899812464374008, 32.017493927996917, 0.0 ], [ 35.898225850143369, 32.017992656133593, 0.0 ], [ 35.896861217131622, 32.018590271470693, 0.0 ], [ 35.896308878110737, 32.018909822254017, 0.0 ], [ 35.895904614474809, 32.019305149421122, 0.0 ], [ 35.895592099631912, 32.019557486520888, 0.0 ], [ 35.892448820633113, 32.024037908877517, 0.0 ], [ 35.891947601824768, 32.02493743326616, 0.0 ] ] ] } },
{ "type": "Feature", "properties": { "Name": "حارة صفيرة", "tessellate": -1, "extrude": 0, "visibility": -1 }, "geometry": { "type": "Polygon", "coordinates": [ [ [ 35.895680559838198, 32.019758506115551, 0.0 ], [ 35.896262171727237, 32.019209309071073, 0.0 ], [ 35.896984336772981, 32.01880326021238, 0.0 ], [ 35.897540076725519, 32.018498183636581, 0.0 ], [ 35.899271813410991, 32.017862937220258, 0.0 ], [ 35.901108832241462, 32.017556637551017, 0.0 ], [ 35.906797869467532, 32.015863729373613, 0.0 ], [ 35.906329632543518, 32.017019448173983, 0.0 ], [ 35.904453505587433, 32.019994471287447, 0.0 ], [ 35.90224563578434, 32.022613630546729, 0.0 ], [ 35.898236951355543, 32.023053278064587, 0.0 ], [ 35.897365664874663, 32.023236827981137, 0.0 ], [ 35.895980022656452, 32.022794645877163, 0.0 ], [ 35.894218944818547, 32.022040131272028, 0.0 ], [ 35.895680559838198, 32.019758506115551, 0.0 ] ] ] } },
{ "type": "Feature", "properties": { "Name": "السكافي", "tessellate": -1, "extrude": 0, "visibility": -1 }, "geometry": { "type": "Polygon", "coordinates": [ [ [ 35.902787464242323, 32.027272817335273, 0.0 ], [ 35.902760363394897, 32.02622613363674, 0.0 ], [ 35.902659581012287, 32.02513786330438, 0.0 ], [ 35.90243307329132, 32.022719210396751, 0.0 ], [ 35.902435847069448, 32.022587578243943, 0.0 ], [ 35.904540755352258, 32.020110934252081, 0.0 ], [ 35.906422961619661, 32.017051245882463, 0.0 ], [ 35.906941613486183, 32.015840430994423, 0.0 ], [ 35.907091752941987, 32.015824384040613, 0.0 ], [ 35.917010237721058, 32.012997881056108, 0.0 ], [ 35.91777068893294, 32.013269645472, 0.0 ], [ 35.919171118119998, 32.014433886376032, 0.0 ], [ 35.920835103164997, 32.015992189188061, 0.0 ], [ 35.921741605355678, 32.01758909344445, 0.0 ], [ 35.922367775711344, 32.018939178398433, 0.0 ], [ 35.92260861374988, 32.02017706432153, 0.0 ], [ 35.922040022377452, 32.021186823712902, 0.0 ], [ 35.920688259950758, 32.02205122335549, 0.0 ], [ 35.918027279654027, 32.024167916762828, 0.0 ], [ 35.914224056007093, 32.026898280968069, 0.0 ], [ 35.911626546833958, 32.026749165338728, 0.0 ], [ 35.910496497626411, 32.02674981846188, 0.0 ], [ 35.909293892946891, 32.027055413211983, 0.0 ], [ 35.907700426418472, 32.027572371488738, 0.0 ], [ 35.906924419080021, 32.027668622284942, 0.0 ], [ 35.906512979576533, 32.027613191428152, 0.0 ], [ 35.90604738588727, 32.027589241084122, 0.0 ], [ 35.905089713186626, 32.027409527179977, 0.0 ], [ 35.904092018807219, 32.027258037844142, 0.0 ], [ 35.903445493347171, 32.027232058966433, 0.0 ], [ 35.902787464242323, 32.027272817335273, 0.0 ] ] ] } },
{ "type": "Feature", "properties": { "Name": "المدارس الامريكية الرقمية", "tessellate": -1, "extrude": 0, "visibility": -1 }, "geometry": { "type": "Polygon", "coordinates": [ [ [ 35.902762083231451, 32.027242305673482, 0.0 ], [ 35.89528748231232, 32.028130519650013, 0.0 ], [ 35.894206125026201, 32.027720882475798, 0.0 ], [ 35.893349521843668, 32.027054417264672, 0.0 ], [ 35.892706963094433, 32.026464857648278, 0.0 ], [ 35.892383212071039, 32.025794799180787, 0.0 ], [ 35.892305227399703, 32.025246730369702, 0.0 ], [ 35.892253858470667, 32.024794505859333, 0.0 ], [ 35.892520699283217, 32.024228477200147, 0.0 ], [ 35.893225792430897, 32.023277341682338, 0.0 ], [ 35.893847749440859, 32.022386835798677, 0.0 ], [ 35.894082572187237, 32.022126029450753, 0.0 ], [ 35.897323920820021, 32.023394493934958, 0.0 ], [ 35.898413098647751, 32.023143253754647, 0.0 ], [ 35.899895280080742, 32.022963966580001, 0.0 ], [ 35.902341109474619, 32.022726517326227, 0.0 ], [ 35.902762083231451, 32.027242305673482, 0.0 ] ] ] } },
{ "type": "Feature", "properties": { "Name": "حارة سليم", "tessellate": -1, "extrude": 0, "visibility": -1 }, "geometry": { "type": "Polygon", "coordinates": [ [ [ 35.899051801180953, 32.011431824035711, 0.0 ], [ 35.899954768857967, 32.010989124708253, 0.0 ], [ 35.900559552357286, 32.010740716500912, 0.0 ], [ 35.90188257286615, 32.010289279088589, 0.0 ], [ 35.903902933331857, 32.009722504088927, 0.0 ], [ 35.908283546457319, 32.01230253010727, 0.0 ], [ 35.908022422161707, 32.0124895931353, 0.0 ], [ 35.907709613208077, 32.012669828144823, 0.0 ], [ 35.906710167697462, 32.01272509484955, 0.0 ], [ 35.904600355384609, 32.012612463230667, 0.0 ], [ 35.902612319347902, 32.013542258049377, 0.0 ], [ 35.898010525482768, 32.012146298230668, 0.0 ], [ 35.899051801180953, 32.011431824035711, 0.0 ] ] ] } },
{ "type": "Feature", "properties": { "Name": "حارة خالد", "tessellate": -1, "extrude": 0, "visibility": -1 }, "geometry": { "type": "Polygon", "coordinates": [ [ [ 35.897918308518697, 32.012022319753612, 0.0 ], [ 35.896254245738888, 32.011556721356897, 0.0 ], [ 35.897710639284831, 32.007735426197698, 0.0 ], [ 35.897946054252188, 32.007627207548879, 0.0 ], [ 35.899493513346322, 32.007425526918773, 0.0 ], [ 35.901011859328037, 32.008288801517857, 0.0 ], [ 35.90370609772792, 32.009678734096219, 0.0 ], [ 35.902806779125939, 32.009969204392071, 0.0 ], [ 35.901430893917507, 32.010394632890957, 0.0 ], [ 35.900386982133952, 32.010739595702582, 0.0 ], [ 35.899893731512527, 32.010932438948799, 0.0 ], [ 35.899238682568679, 32.011273630035767, 0.0 ], [ 35.899037148873013, 32.011394281375438, 0.0 ], [ 35.898096017437453, 32.012016458435788, 0.0 ], [ 35.897918308518697, 32.012022319753612, 0.0 ] ] ] } },
{ "type": "Feature", "properties": { "Name": "لفة تقارب", "tessellate": -1, "extrude": 0, "visibility": -1 }, "geometry": { "type": "Polygon", "coordinates": [ [ [ 35.889750107599681, 32.016452529390428, 0.0 ], [ 35.88994555126375, 32.016196302889973, 0.0 ], [ 35.889925616236582, 32.015433728637177, 0.0 ], [ 35.889835252126858, 32.014651152194233, 0.0 ], [ 35.889702082002898, 32.013706841615083, 0.0 ], [ 35.889605614988902, 32.013049535065903, 0.0 ], [ 35.889617773955663, 32.012815576153521, 0.0 ], [ 35.889626904015877, 32.011796169516927, 0.0 ], [ 35.88969469793652, 32.010733757547477, 0.0 ], [ 35.889919426610412, 32.010081836841763, 0.0 ], [ 35.890402256040531, 32.009582494003567, 0.0 ], [ 35.890919744138039, 32.009266540456899, 0.0 ], [ 35.891386416620577, 32.00911633981935, 0.0 ], [ 35.892820837378252, 32.0090129386748, 0.0 ], [ 35.89391250031214, 32.00897455063064, 0.0 ], [ 35.895077458700577, 32.009259666211733, 0.0 ], [ 35.896411381512507, 32.010760407299458, 0.0 ], [ 35.896194489902747, 32.011564713573968, 0.0 ], [ 35.898003649014697, 32.012078258756851, 0.0 ], [ 35.896508935865178, 32.013006059288948, 0.0 ], [ 35.895035227151602, 32.01395387902275, 0.0 ], [ 35.894235994932991, 32.0144722770385, 0.0 ], [ 35.892209198180801, 32.015454776497577, 0.0 ], [ 35.891006711638042, 32.01604645938297, 0.0 ], [ 35.890297361651072, 32.016330815335031, 0.0 ], [ 35.890031883929957, 32.016379143687843, 0.0 ], [ 35.889750107599681, 32.016452529390428, 0.0 ] ] ] } },
{ "type": "Feature", "properties": { "Name": "منطقة البلدية", "tessellate": -1, "extrude": 0, "visibility": -1 }, "geometry": { "type": "Polygon", "coordinates": [ [ [ 35.871400365902183, 32.029406997044283, 0.0 ], [ 35.870394804868319, 32.029122632441663, 0.0 ], [ 35.869287013230313, 32.028788478571457, 0.0 ], [ 35.86826358131362, 32.02864240177221, 0.0 ], [ 35.867893232049212, 32.028618773797177, 0.0 ], [ 35.866668231168482, 32.028655726046793, 0.0 ], [ 35.86459224447524, 32.028729943639512, 0.0 ], [ 35.863845568984743, 32.028736895741829, 0.0 ], [ 35.862999039780952, 32.028722569598429, 0.0 ], [ 35.86294529017902, 32.028642035067207, 0.0 ], [ 35.862979471099443, 32.028417065059791, 0.0 ], [ 35.863461649529043, 32.027181206162503, 0.0 ], [ 35.864137589925733, 32.025746339166837, 0.0 ], [ 35.864937581110432, 32.024658826636617, 0.0 ], [ 35.865677749444068, 32.023575257271453, 0.0 ], [ 35.865677700896008, 32.023511113620927, 0.0 ], [ 35.865691641953887, 32.022515192203393, 0.0 ], [ 35.865872208110858, 32.021955362600288, 0.0 ], [ 35.866371286953452, 32.02008189486277, 0.0 ], [ 35.867189296995022, 32.018943623012589, 0.0 ], [ 35.871214131029987, 32.021383411327172, 0.0 ], [ 35.871306359063837, 32.022094687644028, 0.0 ], [ 35.871382218088513, 32.022822661127343, 0.0 ], [ 35.871537104689509, 32.024273335212598, 0.0 ], [ 35.871562818216603, 32.025122636676123, 0.0 ], [ 35.871559966063053, 32.025988959164678, 0.0 ], [ 35.871583992574763, 32.027611281679008, 0.0 ], [ 35.87150249846654, 32.029314405023463, 0.0 ], [ 35.871400365902183, 32.029406997044283, 0.0 ] ] ] } },
{ "type": "Feature", "properties": { "Name": "المطل", "tessellate": -1, "extrude": 0, "visibility": -1 }, "geometry": { "type": "Polygon", "coordinates": [ [ [ 35.871292771948347, 32.02143775541419, 0.0 ], [ 35.874991470599689, 32.023629615898088, 0.0 ], [ 35.875531028003323, 32.023926540113237, 0.0 ], [ 35.875955069882913, 32.024217546928753, 0.0 ], [ 35.876291591795969, 32.024635726793527, 0.0 ], [ 35.876538669809086, 32.024926863669968, 0.0 ], [ 35.877716696062564, 32.027311044408712, 0.0 ], [ 35.878139847018844, 32.028404902040783, 0.0 ], [ 35.878256010880051, 32.028967056117793, 0.0 ], [ 35.878135418820733, 32.029773863416473, 0.0 ], [ 35.878014558561468, 32.030288471449978, 0.0 ], [ 35.877776914576103, 32.030843019714723, 0.0 ], [ 35.877594038124059, 32.031263089738417, 0.0 ], [ 35.871588043817468, 32.029482310472567, 0.0 ], [ 35.871644027358208, 32.026610002147841, 0.0 ], [ 35.871653095045573, 32.024720363550031, 0.0 ], [ 35.871555003410762, 32.023619806097066, 0.0 ], [ 35.871292771948347, 32.02143775541419, 0.0 ] ] ] } },
{ "type": "Feature", "properties": { "Name": "لفة المحكمة", "tessellate": -1, "extrude": 0, "visibility": -1 }, "geometry": { "type": "Polygon", "coordinates": [ [ [ 35.862714255449987, 32.028699793795333, 0.0 ], [ 35.861545584588129, 32.028503326012768, 0.0 ], [ 35.860531654331233, 32.028245858096838, 0.0 ], [ 35.859511482565907, 32.027885543479293, 0.0 ], [ 35.858309748529848, 32.027399392984137, 0.0 ], [ 35.856811067488557, 32.026459888145112, 0.0 ], [ 35.855763348141998, 32.02572922195224, 0.0 ], [ 35.85568512441548, 32.025378597163858, 0.0 ], [ 35.855741549442087, 32.025088497822168, 0.0 ], [ 35.855919683767333, 32.024876278166133, 0.0 ], [ 35.856174541578177, 32.024758858708211, 0.0 ], [ 35.856429142109548, 32.024700129245211, 0.0 ], [ 35.857496630508592, 32.024441708647359, 0.0 ], [ 35.858266099552743, 32.024087136769623, 0.0 ], [ 35.858848489718667, 32.023800120864237, 0.0 ], [ 35.859434864889657, 32.023397702452527, 0.0 ], [ 35.864416683537932, 32.019232030174173, 0.0 ], [ 35.865105379477832, 32.01869007049828, 0.0 ], [ 35.865732975354639, 32.018080114829893, 0.0 ], [ 35.866333421625662, 32.018466546224793, 0.0 ], [ 35.8668655467837, 32.018775099559832, 0.0 ], [ 35.867194958591128, 32.018953857654452, 0.0 ], [ 35.866942409313403, 32.019243998399922, 0.0 ], [ 35.86679601512531, 32.019468640335027, 0.0 ], [ 35.866407865246771, 32.019997831079287, 0.0 ], [ 35.866352417118897, 32.020100829984067, 0.0 ], [ 35.866243424870191, 32.020549804055939, 0.0 ], [ 35.865784934518473, 32.022184359913858, 0.0 ], [ 35.865670644622703, 32.022506593716159, 0.0 ], [ 35.865643189222773, 32.023576374170688, 0.0 ], [ 35.864952192741782, 32.02459667551242, 0.0 ], [ 35.86435202054134, 32.025418046070193, 0.0 ], [ 35.864100399129249, 32.02572995632876, 0.0 ], [ 35.863812480719687, 32.026365804764893, 0.0 ], [ 35.863551652145141, 32.026900687765988, 0.0 ], [ 35.863014284177467, 32.02805088116439, 0.0 ], [ 35.862863517177487, 32.028389530379357, 0.0 ], [ 35.862714255449987, 32.028699793795333, 0.0 ] ] ] } },
{ "type": "Feature", "properties": { "Name": "سكن الجامعة", "tessellate": -1, "extrude": 0, "visibility": -1 }, "geometry": { "type": "Polygon", "coordinates": [ [ [ 35.881728392106282, 32.031540172235822, 0.0 ], [ 35.880021105785993, 32.024911915524257, 0.0 ], [ 35.879896563255947, 32.023713853341441, 0.0 ], [ 35.879447458975449, 32.021013336084692, 0.0 ], [ 35.879876486982752, 32.020728801601287, 0.0 ], [ 35.880738679188639, 32.019898114699878, 0.0 ], [ 35.881730991876061, 32.018971714623817, 0.0 ], [ 35.881752392043857, 32.020078659000383, 0.0 ], [ 35.881772167679891, 32.023936985337258, 0.0 ], [ 35.881797838966527, 32.024981765392937, 0.0 ], [ 35.881843876705453, 32.02670361047214, 0.0 ], [ 35.881964110785539, 32.028780513507698, 0.0 ], [ 35.882119280180348, 32.029940715943333, 0.0 ], [ 35.882259776051391, 32.030899983594857, 0.0 ], [ 35.882226587878243, 32.031056726886654, 0.0 ], [ 35.881954310416141, 32.031320026465067, 0.0 ], [ 35.881728392106282, 32.031540172235822, 0.0 ] ] ] } },
{ "type": "Feature", "properties": { "Name": "اسكان المهندسين", "tessellate": -1, "extrude": 0, "visibility": -1 }, "geometry": { "type": "Polygon", "coordinates": [ [ [ 35.919010882887072, 32.004126074209232, 0.0 ], [ 35.910114787011082, 32.007438124848683, 0.0 ], [ 35.909841737004747, 32.005763246987598, 0.0 ], [ 35.910521234931842, 32.004172063184271, 0.0 ], [ 35.911324660051612, 32.00271161437626, 0.0 ], [ 35.91513761857631, 32.001546978256648, 0.0 ], [ 35.917736738638141, 32.001221062719047, 0.0 ], [ 35.919010882887072, 32.004126074209232, 0.0 ] ] ] } },
{ "type": "Feature", "properties": { "Name": "قطنة", "tessellate": -1, "extrude": 0, "visibility": -1 }, "geometry": { "type": "Polygon", "coordinates": [ [ [ 35.917706694022009, 32.001222011184197, 0.0 ], [ 35.914916665219437, 32.00153734712547, 0.0 ], [ 35.91390984399245, 31.999531106241349, 0.0 ], [ 35.90736867670207, 31.99873998852183, 0.0 ], [ 35.904549218475843, 31.99860259874534, 0.0 ], [ 35.903855663103073, 31.998718725541892, 0.0 ], [ 35.90343020617474, 31.998942112450141, 0.0 ], [ 35.9033038717997, 31.99788099440558, 0.0 ], [ 35.903520566122403, 31.997022601271411, 0.0 ], [ 35.90357628629458, 31.996549451636771, 0.0 ], [ 35.904000015909688, 31.9943873728323, 0.0 ], [ 35.904189599272947, 31.993091543131399, 0.0 ], [ 35.904186362022728, 31.992826489742079, 0.0 ], [ 35.903980636451102, 31.991031403995191, 0.0 ], [ 35.903403813171479, 31.98725949985905, 0.0 ], [ 35.903794882025757, 31.98721983778864, 0.0 ], [ 35.904112804518391, 31.987227857647319, 0.0 ], [ 35.904446236462377, 31.987233348126509, 0.0 ], [ 35.904774757312232, 31.98731981309043, 0.0 ], [ 35.905260459563529, 31.98740310928163, 0.0 ], [ 35.906063016257228, 31.98769535851271, 0.0 ], [ 35.907506801062098, 31.988326358029571, 0.0 ], [ 35.9085826588489, 31.988796522580859, 0.0 ], [ 35.910305420413501, 31.989937563052258, 0.0 ], [ 35.911860824165402, 31.990926458027559, 0.0 ], [ 35.912555982787772, 31.991256210081641, 0.0 ], [ 35.913285992071948, 31.991590916458009, 0.0 ], [ 35.914287253181527, 31.991987637501719, 0.0 ], [ 35.915894955421663, 31.992481743554691, 0.0 ], [ 35.917238300892407, 31.992810922109321, 0.0 ], [ 35.918363392629132, 31.99311497845067, 0.0 ], [ 35.91840764647641, 31.993712078870679, 0.0 ], [ 35.918515532356118, 31.994566277832678, 0.0 ], [ 35.918632095132267, 31.995409035247231, 0.0 ], [ 35.918614049193557, 31.99683271748529, 0.0 ], [ 35.91832688292574, 31.997597229564569, 0.0 ], [ 35.918170241771158, 31.998180548650431, 0.0 ], [ 35.917968503688577, 31.99875881940741, 0.0 ], [ 35.917817720673, 31.999780883715388, 0.0 ], [ 35.917706694022009, 32.001222011184197, 0.0 ] ] ] } },
{ "type": "Feature", "properties": { "Name": "لفة الخرابشة", "tessellate": -1, "extrude": 0, "visibility": -1 }, "geometry": { "type": "Polygon", "coordinates": [ [ [ 35.903172975990969, 31.999087987309821, 0.0 ], [ 35.902941595647121, 31.999252880359229, 0.0 ], [ 35.902467335286438, 31.999177278431901, 0.0 ], [ 35.900722560586779, 31.999886197262761, 0.0 ], [ 35.900360530046591, 31.999978117314971, 0.0 ], [ 35.899868186888433, 31.99989786475912, 0.0 ], [ 35.899704018901318, 31.999496693482069, 0.0 ], [ 35.899635104508391, 31.999272653828768, 0.0 ], [ 35.899883393165688, 31.996931133357631, 0.0 ], [ 35.896275484175092, 31.996924822358199, 0.0 ], [ 35.896221605280083, 31.99558585809849, 0.0 ], [ 35.896144437280263, 31.994373579705812, 0.0 ], [ 35.899361656061267, 31.99360885526275, 0.0 ], [ 35.902358692644647, 31.99275626404793, 0.0 ], [ 35.902863962460842, 31.99268455582963, 0.0 ], [ 35.903214918483258, 31.993011766961171, 0.0 ], [ 35.904190001813397, 31.99295645477315, 0.0 ], [ 35.90398934762122, 31.99441077175155, 0.0 ], [ 35.903630204389351, 31.996109331191519, 0.0 ], [ 35.90325789089264, 31.9978988996385, 0.0 ], [ 35.903400180391642, 31.99892086895753, 0.0 ], [ 35.903172975990969, 31.999087987309821, 0.0 ] ] ] } },
{ "type": "Feature", "properties": { "Name": "لفة الارقم", "tessellate": -1, "extrude": 0, "visibility": -1 }, "geometry": { "type": "Polygon", "coordinates": [ [ [ 35.899515039826341, 31.999369865166191, 0.0 ], [ 35.898080289189259, 31.99944199643851, 0.0 ], [ 35.895591444903907, 31.999604604272299, 0.0 ], [ 35.892116545871268, 32.000400976506761, 0.0 ], [ 35.891110345773917, 31.999168123372179, 0.0 ], [ 35.892734775724492, 31.997074739904779, 0.0 ], [ 35.893093627157803, 31.996647909715389, 0.0 ], [ 35.894470786086067, 31.99606838734692, 0.0 ], [ 35.895992146114587, 31.995540638259911, 0.0 ], [ 35.896191976334499, 31.995491580229231, 0.0 ], [ 35.896189120032133, 31.995650339626572, 0.0 ], [ 35.89622074065035, 31.99696937892131, 0.0 ], [ 35.899844361002508, 31.997004450666211, 0.0 ], [ 35.899515039826341, 31.999369865166191, 0.0 ] ] ] } },
{ "type": "Feature", "properties": { "Name": "ابن عوف", "tessellate": -1, "extrude": 0, "visibility": -1 }, "geometry": { "type": "Polygon", "coordinates": [ [ [ 35.856736155590831, 32.026551800575923, 0.0 ], [ 35.858230302135517, 32.027502717481632, 0.0 ], [ 35.858932945948773, 32.027792666601393, 0.0 ], [ 35.861026330843409, 32.028512722672083, 0.0 ], [ 35.862786551722081, 32.028843415821918, 0.0 ], [ 35.862788378025812, 32.028970712105149, 0.0 ], [ 35.86304957958329, 32.032209940574504, 0.0 ], [ 35.863437016776118, 32.033809750342307, 0.0 ], [ 35.863757569959198, 32.034530903726122, 0.0 ], [ 35.864816033660261, 32.037164975760852, 0.0 ], [ 35.864782079060802, 32.037412441351492, 0.0 ], [ 35.862870451624467, 32.037913146205128, 0.0 ], [ 35.862578636744423, 32.037896726614903, 0.0 ], [ 35.856883711479902, 32.034429397419693, 0.0 ], [ 35.855599475550243, 32.033629117953083, 0.0 ], [ 35.85513451052288, 32.033206950162381, 0.0 ], [ 35.854784692523587, 32.032609318624587, 0.0 ], [ 35.854544970946662, 32.032183692471861, 0.0 ], [ 35.853991558631911, 32.030847141359573, 0.0 ], [ 35.852958478903297, 32.029448332869173, 0.0 ], [ 35.854178359991529, 32.024948123624192, 0.0 ], [ 35.856736155590831, 32.026551800575923, 0.0 ] ] ] } },
{ "type": "Feature", "properties": { "Name": "الجامعة", "tessellate": -1, "extrude": 0, "visibility": -1 }, "geometry": { "type": "Polygon", "coordinates": [ [ [ 35.881740519376891, 32.031613205546861, 0.0 ], [ 35.881483173332583, 32.031742587583857, 0.0 ], [ 35.879744395095443, 32.031673735741187, 0.0 ], [ 35.878282223928061, 32.031410751925733, 0.0 ], [ 35.877679789613893, 32.031290383107553, 0.0 ], [ 35.877718531808021, 32.031167206053929, 0.0 ], [ 35.878112531014679, 32.030290976286921, 0.0 ], [ 35.87825652522865, 32.029559315569109, 0.0 ], [ 35.878324908026293, 32.029016225466442, 0.0 ], [ 35.878236754543941, 32.02848416237466, 0.0 ], [ 35.877761248766589, 32.027212763210983, 0.0 ], [ 35.877186353801932, 32.026057662947437, 0.0 ], [ 35.87657875451697, 32.024882253823797, 0.0 ], [ 35.876027235802447, 32.024150464609413, 0.0 ], [ 35.875569550679728, 32.023851315067517, 0.0 ], [ 35.872118547984421, 32.021832148701783, 0.0 ], [ 35.868960421513293, 32.019975210087757, 0.0 ], [ 35.866606442736959, 32.01859832482257, 0.0 ], [ 35.865944793966449, 32.018221163924913, 0.0 ], [ 35.865830005585558, 32.018008673046502, 0.0 ], [ 35.866193189794153, 32.017569844974702, 0.0 ], [ 35.868139442062322, 32.015491934001432, 0.0 ], [ 35.868925032370392, 32.01468564747686, 0.0 ], [ 35.869771734098883, 32.01353447240205, 0.0 ], [ 35.870683906553289, 32.012069093303182, 0.0 ], [ 35.871150906567827, 32.01104918955437, 0.0 ], [ 35.871663509595869, 32.009379150459253, 0.0 ], [ 35.872245457145198, 32.007415920083282, 0.0 ], [ 35.872553007161997, 32.006793494991591, 0.0 ], [ 35.872829507122503, 32.006289435220268, 0.0 ], [ 35.873544952095472, 32.005032819276138, 0.0 ], [ 35.874177421971403, 32.003948020743209, 0.0 ], [ 35.875094228595117, 32.002878037097062, 0.0 ], [ 35.875470936188997, 32.003810413986407, 0.0 ], [ 35.875699152995011, 32.004920595799753, 0.0 ], [ 35.880141852693548, 32.006580753342178, 0.0 ], [ 35.878450804911871, 32.010186716778499, 0.0 ], [ 35.87544129979328, 32.016285705053527, 0.0 ], [ 35.874902202896124, 32.017476769155842, 0.0 ], [ 35.876071683215017, 32.020993743503936, 0.0 ], [ 35.879332469752569, 32.020806192545727, 0.0 ], [ 35.879847882173387, 32.024486934024416, 0.0 ], [ 35.881740519376891, 32.031613205546861, 0.0 ] ] ] } },
{ "type": "Feature", "properties": { "Name": "لفة المطبعة", "tessellate": -1, "extrude": 0, "visibility": -1 }, "geometry": { "type": "Polygon", "coordinates": [ [ [ 35.884913383579978, 32.00084449847116, 0.0 ], [ 35.88460360374556, 32.000502534209829, 0.0 ], [ 35.884042337386767, 32.000026767676928, 0.0 ], [ 35.883416612134162, 31.999540952726679, 0.0 ], [ 35.883003359585523, 31.999317066768441, 0.0 ], [ 35.882040602039851, 31.998880689079041, 0.0 ], [ 35.881834596759312, 31.998796810547741, 0.0 ], [ 35.881477067344321, 31.998585597659361, 0.0 ], [ 35.881286100510387, 31.998372556028521, 0.0 ], [ 35.882325759132947, 31.997648229031881, 0.0 ], [ 35.884396483609073, 31.996344705288859, 0.0 ], [ 35.889301471433981, 31.993217666979451, 0.0 ], [ 35.889908988209847, 31.99292923000748, 0.0 ], [ 35.890257986195799, 31.992900147473669, 0.0 ], [ 35.890592761930172, 31.992978707739379, 0.0 ], [ 35.89079220462343, 31.993122223530332, 0.0 ], [ 35.890976446140833, 31.993399621727281, 0.0 ], [ 35.890972477180512, 31.993618199752959, 0.0 ], [ 35.889981543118509, 31.995536668657071, 0.0 ], [ 35.889693442934608, 31.99586218869738, 0.0 ], [ 35.889292389046119, 31.996194803880162, 0.0 ], [ 35.888771635696237, 31.996571571806669, 0.0 ], [ 35.887353123924242, 31.99773429563486, 0.0 ], [ 35.885854185471374, 31.999827507466819, 0.0 ], [ 35.884913383579978, 32.00084449847116, 0.0 ] ] ] } },
{ "type": "Feature", "properties": { "Name": "لفة كامل عريقات", "tessellate": -1, "extrude": 0, "visibility": -1 }, "geometry": { "type": "Polygon", "coordinates": [ [ [ 35.890770026164432, 31.99307430512448, 0.0 ], [ 35.890658821761839, 31.992912426042281, 0.0 ], [ 35.890560786140803, 31.992759068060241, 0.0 ], [ 35.890535398586579, 31.992646605557091, 0.0 ], [ 35.890731787790223, 31.99243587763927, 0.0 ], [ 35.89190297867777, 31.99158321909254, 0.0 ], [ 35.892036031815778, 31.991419077713129, 0.0 ], [ 35.892672023154908, 31.990805463977779, 0.0 ], [ 35.893530475420398, 31.989905867541431, 0.0 ], [ 35.895386861276243, 31.988204231050741, 0.0 ], [ 35.896450553717337, 31.98717955296814, 0.0 ], [ 35.897576260451153, 31.98619322747123, 0.0 ], [ 35.897737768400333, 31.98611404298952, 0.0 ], [ 35.897897917551013, 31.986084506985399, 0.0 ], [ 35.898028592311817, 31.986068722729971, 0.0 ], [ 35.898135638268961, 31.98607000493493, 0.0 ], [ 35.89830130503708, 31.98608894016585, 0.0 ], [ 35.899366105180178, 31.986679100819959, 0.0 ], [ 35.899836616940917, 31.98692191058095, 0.0 ], [ 35.900316165775259, 31.98699455234215, 0.0 ], [ 35.900826855826523, 31.987140349642679, 0.0 ], [ 35.90128591440196, 31.98724492466204, 0.0 ], [ 35.901775362417368, 31.987311201308859, 0.0 ], [ 35.902190131998147, 31.987329965171039, 0.0 ], [ 35.902853708121917, 31.987319998799869, 0.0 ], [ 35.903369453792237, 31.987260646904002, 0.0 ], [ 35.903622714045902, 31.989018543241109, 0.0 ], [ 35.903965919106717, 31.990957811939179, 0.0 ], [ 35.904196589565153, 31.992894484634292, 0.0 ], [ 35.903645226275167, 31.99296400296674, 0.0 ], [ 35.903218653851617, 31.992991773209379, 0.0 ], [ 35.903091650128317, 31.992990996272901, 0.0 ], [ 35.902931090822747, 31.99260196142086, 0.0 ], [ 35.897917643414367, 31.99392666576145, 0.0 ], [ 35.896111023833697, 31.99436361848376, 0.0 ], [ 35.896171007041659, 31.99491986913533, 0.0 ], [ 35.896193087348479, 31.995461558971851, 0.0 ], [ 35.895983564719231, 31.995526143254281, 0.0 ], [ 35.89448305025423, 31.99600694720715, 0.0 ], [ 35.891191119934923, 31.993553225529631, 0.0 ], [ 35.890770026164432, 31.99307430512448, 0.0 ] ] ] } },
{ "type": "Feature", "properties": { "Name": "لفة الملحمة", "tessellate": -1, "extrude": 0, "visibility": -1 }, "geometry": { "type": "Polygon", "coordinates": [ [ [ 35.882417875191678, 32.019114270450288, 0.0 ], [ 35.882228255921852, 32.018993009253713, 0.0 ], [ 35.882161739192398, 32.01880161610945, 0.0 ], [ 35.882223618701893, 32.018585335384941, 0.0 ], [ 35.882493324143752, 32.01826318685653, 0.0 ], [ 35.884100699640641, 32.016886499094483, 0.0 ], [ 35.884237752660191, 32.016833890384547, 0.0 ], [ 35.884340083910587, 32.016847825995512, 0.0 ], [ 35.884449924999672, 32.016960704981123, 0.0 ], [ 35.884728078702757, 32.017357530877568, 0.0 ], [ 35.88507963424194, 32.017596018635658, 0.0 ], [ 35.887429295359667, 32.019078409335073, 0.0 ], [ 35.887652250154019, 32.019221401806362, 0.0 ], [ 35.887593352778097, 32.019333048146379, 0.0 ], [ 35.886345254099282, 32.021261701650381, 0.0 ], [ 35.886169816478287, 32.021499649492142, 0.0 ], [ 35.885783573818728, 32.021261600848703, 0.0 ], [ 35.882417875191678, 32.019114270450288, 0.0 ] ] ] } },
{ "type": "Feature", "properties": { "Name": "لفة الاوزاعي", "tessellate": -1, "extrude": 0, "visibility": -1 }, "geometry": { "type": "Polygon", "coordinates": [ [ [ 35.879767492808938, 32.020774738645223, 0.0 ], [ 35.876081058904028, 32.020977319174058, 0.0 ], [ 35.875433443977244, 32.01900385476474, 0.0 ], [ 35.874942236594933, 32.017594862404827, 0.0 ], [ 35.875100295374217, 32.017174673662829, 0.0 ], [ 35.875526790729147, 32.016699844583918, 0.0 ], [ 35.876265960786228, 32.015880877274768, 0.0 ], [ 35.877607751663703, 32.014906986333983, 0.0 ], [ 35.878000130495067, 32.014654132424042, 0.0 ], [ 35.878244838194753, 32.014513822018692, 0.0 ], [ 35.87848665297831, 32.01446224203778, 0.0 ], [ 35.878658602340138, 32.014812580688513, 0.0 ], [ 35.878967897056611, 32.015338989248868, 0.0 ], [ 35.879646229934536, 32.016377647400738, 0.0 ], [ 35.881804558011083, 32.018837332461473, 0.0 ], [ 35.879767492808938, 32.020774738645223, 0.0 ] ] ] } },
{ "type": "Feature", "properties": { "Name": "لفة كوبر", "tessellate": -1, "extrude": 0, "visibility": -1 }, "geometry": { "type": "Polygon", "coordinates": [ [ [ 35.887719945386017, 32.019232445662183, 0.0 ], [ 35.884805754954733, 32.017381042273058, 0.0 ], [ 35.884421340861273, 32.016715615684227, 0.0 ], [ 35.884472399451113, 32.016358500833768, 0.0 ], [ 35.88443242916005, 32.014934447392292, 0.0 ], [ 35.884136398542793, 32.014192805851643, 0.0 ], [ 35.883107987188559, 32.012905005218848, 0.0 ], [ 35.88237297643186, 32.011408863564021, 0.0 ], [ 35.887823005011249, 32.011851785902223, 0.0 ], [ 35.888718221814258, 32.01216636965966, 0.0 ], [ 35.889217148602583, 32.012452422091137, 0.0 ], [ 35.889596119175863, 32.012767603635183, 0.0 ], [ 35.889802385586158, 32.014497771571307, 0.0 ], [ 35.88994441574831, 32.015983538709257, 0.0 ], [ 35.889918423558832, 32.01617660673319, 0.0 ], [ 35.889890914825408, 32.016252579670528, 0.0 ], [ 35.889831696995728, 32.016334109804127, 0.0 ], [ 35.889683642188913, 32.016485175803403, 0.0 ], [ 35.88956058088943, 32.016722243433072, 0.0 ], [ 35.889104039190357, 32.017218719472353, 0.0 ], [ 35.888908542050892, 32.017515183310202, 0.0 ], [ 35.887719945386017, 32.019232445662183, 0.0 ] ] ] } },
{ "type": "Feature", "properties": { "Name": "لفة نوف", "tessellate": -1, "extrude": 0, "visibility": -1 }, "geometry": { "type": "Polygon", "coordinates": [ [ [ 35.88493742035449, 32.000903060628417, 0.0 ], [ 35.883575716478397, 32.002273001056992, 0.0 ], [ 35.88301975270452, 32.00273957340535, 0.0 ], [ 35.881940312864721, 32.003533938322242, 0.0 ], [ 35.878888044342617, 32.006010095413821, 0.0 ], [ 35.878474749767591, 32.005834399260777, 0.0 ], [ 35.87575024157362, 32.00484369862334, 0.0 ], [ 35.875631312440539, 32.004391457642853, 0.0 ], [ 35.875392819225098, 32.003418885094909, 0.0 ], [ 35.875165038058931, 32.0028776070032, 0.0 ], [ 35.875287946676018, 32.002707258535743, 0.0 ], [ 35.876619195988859, 32.001362426969322, 0.0 ], [ 35.877545127554242, 32.000673683980267, 0.0 ], [ 35.879984942263867, 31.999092766374279, 0.0 ], [ 35.881167433157131, 31.998406250715501, 0.0 ], [ 35.88125182317696, 31.998361628230619, 0.0 ], [ 35.881308074962412, 31.99841235975456, 0.0 ], [ 35.881364270079828, 31.998480499956329, 0.0 ], [ 35.881445231628582, 31.998571413251131, 0.0 ], [ 35.881502106390457, 31.99862073491672, 0.0 ], [ 35.881566407993922, 31.99865712261316, 0.0 ], [ 35.881812989724551, 31.998807359168239, 0.0 ], [ 35.882460972340823, 31.999085731201529, 0.0 ], [ 35.882908088123159, 31.99929630761617, 0.0 ], [ 35.883211473927993, 31.999449046560279, 0.0 ], [ 35.883403336459928, 31.999559619710361, 0.0 ], [ 35.88374761730681, 31.99983323230537, 0.0 ], [ 35.884270334914937, 32.000274341962957, 0.0 ], [ 35.88493742035449, 32.000903060628417, 0.0 ] ] ] } },
{ "type": "Feature", "properties": { "Name": "لفة حديفة الصحفيين", "tessellate": -1, "extrude": 0, "visibility": -1 }, "geometry": { "type": "Polygon", "coordinates": [ [ [ 35.886762258360463, 31.998657812807089, 0.0 ], [ 35.887363708469607, 31.99781263641173, 0.0 ], [ 35.889429279995888, 31.996124794535479, 0.0 ], [ 35.889754480916267, 31.995864825291541, 0.0 ], [ 35.890001447958447, 31.995550578656999, 0.0 ], [ 35.890316753628177, 31.995004547871059, 0.0 ], [ 35.890912806473381, 31.99380222591741, 0.0 ], [ 35.890971012117298, 31.99372045645508, 0.0 ], [ 35.891072594722793, 31.993641448814891, 0.0 ], [ 35.891183500010428, 31.993663160717599, 0.0 ], [ 35.89445681981465, 31.996035638220661, 0.0 ], [ 35.892983998792509, 31.99663289832888, 0.0 ], [ 35.892829969392068, 31.996829442224769, 0.0 ], [ 35.891071779000477, 31.99915048880365, 0.0 ], [ 35.886158943366929, 32.00176446558455, 0.0 ], [ 35.884965689601437, 32.000980503511201, 0.0 ], [ 35.884980307062747, 32.000844354777477, 0.0 ], [ 35.885940284676757, 31.99978806002235, 0.0 ], [ 35.886762258360463, 31.998657812807089, 0.0 ] ] ] } },
{ "type": "Feature", "properties": { "Name": "الوديان", "tessellate": -1, "extrude": 0, "visibility": -1 }, "geometry": { "type": "Polygon", "coordinates": [ [ [ 35.882381447070131, 32.011338250399753, 0.0 ], [ 35.882336531031761, 32.009973663536478, 0.0 ], [ 35.882487128115542, 32.009509199569102, 0.0 ], [ 35.882658150159472, 32.009265304329681, 0.0 ], [ 35.883011263650943, 32.008966975565457, 0.0 ], [ 35.883486823339908, 32.008585925627422, 0.0 ], [ 35.883909733977028, 32.008209360445413, 0.0 ], [ 35.88422403791855, 32.007926381082278, 0.0 ], [ 35.88444456768903, 32.007663947708323, 0.0 ], [ 35.884536237272123, 32.007389289422314, 0.0 ], [ 35.88452666414868, 32.006938693474957, 0.0 ], [ 35.884460233453879, 32.006529387167419, 0.0 ], [ 35.884341365724502, 32.006057492566782, 0.0 ], [ 35.884229370910788, 32.005838734253537, 0.0 ], [ 35.88466173790858, 32.00500727946379, 0.0 ], [ 35.886267239358091, 32.001786743246733, 0.0 ], [ 35.888867647037422, 32.000385035153712, 0.0 ], [ 35.891095773315698, 31.99919230644225, 0.0 ], [ 35.892002981053693, 32.000376022690403, 0.0 ], [ 35.894094021564229, 31.999958468210689, 0.0 ], [ 35.894450807211022, 32.00083717842778, 0.0 ], [ 35.893849272505527, 32.002052616717222, 0.0 ], [ 35.896226086301368, 32.002102173989137, 0.0 ], [ 35.893928266213592, 32.008928391755909, 0.0 ], [ 35.892225570797862, 32.009008695365537, 0.0 ], [ 35.891383645160623, 32.009093415904857, 0.0 ], [ 35.890909845672347, 32.009235153579731, 0.0 ], [ 35.890384128678477, 32.009560134418862, 0.0 ], [ 35.889880631103694, 32.01007208162131, 0.0 ], [ 35.889597356233537, 32.010861076525927, 0.0 ], [ 35.889573435206657, 32.011429567134591, 0.0 ], [ 35.889610421543637, 32.012766257481012, 0.0 ], [ 35.889195333685308, 32.012412743760358, 0.0 ], [ 35.888849739151858, 32.012235081349409, 0.0 ], [ 35.888580321098452, 32.012087262884712, 0.0 ], [ 35.888214404992063, 32.011909125490362, 0.0 ], [ 35.887809610319003, 32.011788277586056, 0.0 ], [ 35.885474365505367, 32.011594709006417, 0.0 ], [ 35.882381447070131, 32.011338250399753, 0.0 ] ] ] } },
{ "type": "Feature", "properties": { "Name": "اليوبيل", "tessellate": -1, "extrude": 0, "visibility": -1 }, "geometry": { "type": "Polygon", "coordinates": [ [ [ 35.907798251595167, 32.02796929791991, 0.0 ], [ 35.907820577986662, 32.028137103991412, 0.0 ], [ 35.907843485247049, 32.028487956596123, 0.0 ], [ 35.907867417447171, 32.028870167912608, 0.0 ], [ 35.907818835581978, 32.029487316992871, 0.0 ], [ 35.907783844324094, 32.030704171635968, 0.0 ], [ 35.904777009563951, 32.030969017547477, 0.0 ], [ 35.899973706959209, 32.03139411225343, 0.0 ], [ 35.900664914353428, 32.032845099823739, 0.0 ], [ 35.902122556818341, 32.036030668947681, 0.0 ], [ 35.901810066139809, 32.036114672339018, 0.0 ], [ 35.901154073714672, 32.036343630342706, 0.0 ], [ 35.900137877500583, 32.036720933115902, 0.0 ], [ 35.898812851441299, 32.037131552166002, 0.0 ], [ 35.897752044551048, 32.037393873694413, 0.0 ], [ 35.897288868239812, 32.037428466950772, 0.0 ], [ 35.896856691194493, 32.037320389336642, 0.0 ], [ 35.896571432324791, 32.037196677192213, 0.0 ], [ 35.896299549109507, 32.036988240240532, 0.0 ], [ 35.896043370041873, 32.03654119631728, 0.0 ], [ 35.895334686715827, 32.035474085773821, 0.0 ], [ 35.894911185438801, 32.034885394883212, 0.0 ], [ 35.894554365202517, 32.034453599460512, 0.0 ], [ 35.894464784838917, 32.033999518789358, 0.0 ], [ 35.894359056178473, 32.033517136473222, 0.0 ], [ 35.894269516699651, 32.032972255184383, 0.0 ], [ 35.894170111642772, 32.03188174385344, 0.0 ], [ 35.893992049241568, 32.030747697162212, 0.0 ], [ 35.893915855600831, 32.030331294553591, 0.0 ], [ 35.89395322182866, 32.029986857030757, 0.0 ], [ 35.894266768749127, 32.029320334639813, 0.0 ], [ 35.894621950750739, 32.0288801271276, 0.0 ], [ 35.895115304713279, 32.028412947462769, 0.0 ], [ 35.895377972587767, 32.02825015403949, 0.0 ], [ 35.895526697994299, 32.028146691701423, 0.0 ], [ 35.898786518923991, 32.02772751042702, 0.0 ], [ 35.902702410077232, 32.027292210805427, 0.0 ], [ 35.903105247136601, 32.027245842521197, 0.0 ], [ 35.903504678094791, 32.027253916088121, 0.0 ], [ 35.904093309460677, 32.027267410824969, 0.0 ], [ 35.904743263131508, 32.027368451214301, 0.0 ], [ 35.905709144897592, 32.027528188025748, 0.0 ], [ 35.906342969409813, 32.027623550661559, 0.0 ], [ 35.90696389032319, 32.027662830774773, 0.0 ], [ 35.907721399170192, 32.027570808225953, 0.0 ], [ 35.907780177026588, 32.027689957068979, 0.0 ], [ 35.907781957644218, 32.027756785761277, 0.0 ], [ 35.907781520423718, 32.027840802924047, 0.0 ], [ 35.907798251595167, 32.02796929791991, 0.0 ] ] ] } },
{ "type": "Feature", "properties": { "Name": "حارة ابو ركبة", "tessellate": -1, "extrude": 0, "visibility": -1 }, "geometry": { "type": "Polygon", "coordinates": [ [ [ 35.884186304864627, 32.005853656216289, 0.0 ], [ 35.883768448709731, 32.005666273302467, 0.0 ], [ 35.883346424547668, 32.005552482755263, 0.0 ], [ 35.882883225027491, 32.00566942207432, 0.0 ], [ 35.882169557684428, 32.00591607235954, 0.0 ], [ 35.881339582045733, 32.006312405666257, 0.0 ], [ 35.880639328539317, 32.006480425776303, 0.0 ], [ 35.880306582644508, 32.006550290718437, 0.0 ], [ 35.878997245756587, 32.006029175574277, 0.0 ], [ 35.881736073486067, 32.003772412145352, 0.0 ], [ 35.882715993278381, 32.003013708003017, 0.0 ], [ 35.883575753024203, 32.0024091974173, 0.0 ], [ 35.884950131104688, 32.001032153519027, 0.0 ], [ 35.886192254176677, 32.001821750763007, 0.0 ], [ 35.884186304864627, 32.005853656216289, 0.0 ] ] ] } },
{ "type": "Feature", "properties": { "Name": "لفة الفرسان", "tessellate": -1, "extrude": 0, "visibility": -1 }, "geometry": { "type": "Polygon", "coordinates": [ [ [ 35.879780603089287, 32.016456677229208, 0.0 ], [ 35.879015155734052, 32.015350119341633, 0.0 ], [ 35.87850638570756, 32.014380004200852, 0.0 ], [ 35.881344625895068, 32.013436865731123, 0.0 ], [ 35.88296169652881, 32.012745825126501, 0.0 ], [ 35.883192491950872, 32.013051620343127, 0.0 ], [ 35.883730478825363, 32.013708794916383, 0.0 ], [ 35.884129042920343, 32.014333379369681, 0.0 ], [ 35.884389938950058, 32.014941600172193, 0.0 ], [ 35.884415018246322, 32.015594270726183, 0.0 ], [ 35.884424316637677, 32.016421770763181, 0.0 ], [ 35.884384705832119, 32.016544349082046, 0.0 ], [ 35.884174889546458, 32.016780459558817, 0.0 ], [ 35.881917234656157, 32.018752409624661, 0.0 ], [ 35.879780603089287, 32.016456677229208, 0.0 ] ] ] } },
{ "type": "Feature", "properties": { "Name": "لفة حديقة الهدى", "tessellate": -1, "extrude": 0, "visibility": -1 }, "geometry": { "type": "Polygon", "coordinates": [ [ [ 35.88261139734729, 32.011988527476817, 0.0 ], [ 35.88291623349329, 32.012630988885732, 0.0 ], [ 35.882839866552978, 32.01276505810003, 0.0 ], [ 35.880420664778917, 32.013698039744021, 0.0 ], [ 35.878989336809752, 32.014156991456687, 0.0 ], [ 35.878382856056689, 32.014421453086918, 0.0 ], [ 35.878129606037717, 32.014534448835462, 0.0 ], [ 35.877515179487382, 32.014897605587002, 0.0 ], [ 35.876429030565284, 32.015723880093923, 0.0 ], [ 35.876036405658454, 32.016059143335347, 0.0 ], [ 35.875296690665152, 32.016861166674737, 0.0 ], [ 35.875165815200241, 32.016890719010803, 0.0 ], [ 35.8782890123803, 32.010632258418347, 0.0 ], [ 35.878648912817411, 32.010648896405918, 0.0 ], [ 35.879446998168582, 32.010585599349227, 0.0 ], [ 35.880698195527899, 32.010331390284932, 0.0 ], [ 35.881245207336853, 32.010296077718372, 0.0 ], [ 35.882314484047399, 32.010441595721403, 0.0 ], [ 35.88228809894018, 32.01124747847205, 0.0 ], [ 35.88261139734729, 32.011988527476817, 0.0 ] ] ] } },
{ "type": "Feature", "properties": { "Name": "حي الحاج صالح", "tessellate": -1, "extrude": 0, "visibility": -1 }, "geometry": { "type": "Polygon", "coordinates": [ [ [ 35.881663132368729, 32.0103205127526, 0.0 ], [ 35.881078418759557, 32.010248975286132, 0.0 ], [ 35.880538267478343, 32.010342113930427, 0.0 ], [ 35.880044765938521, 32.010409588208127, 0.0 ], [ 35.879519591022287, 32.010518046920389, 0.0 ], [ 35.879069747652252, 32.010605260109081, 0.0 ], [ 35.878668691836403, 32.010589109848638, 0.0 ], [ 35.878286077573122, 32.010589590098753, 0.0 ], [ 35.880113566685282, 32.00665190427101, 0.0 ], [ 35.880261018559729, 32.006633214548053, 0.0 ], [ 35.880753174939059, 32.006535807482862, 0.0 ], [ 35.881412740466999, 32.006343665946979, 0.0 ], [ 35.882003393440229, 32.006041892324667, 0.0 ], [ 35.882702140759349, 32.005833270480053, 0.0 ], [ 35.883073780336268, 32.005710268266128, 0.0 ], [ 35.883340140950011, 32.005618299921252, 0.0 ], [ 35.883632288183797, 32.005678316578731, 0.0 ], [ 35.883983445015588, 32.005808549192658, 0.0 ], [ 35.884180443656192, 32.005979035233572, 0.0 ], [ 35.884321936504577, 32.006261757901633, 0.0 ], [ 35.884393441011603, 32.006610645292348, 0.0 ], [ 35.884442179472948, 32.006979988006748, 0.0 ], [ 35.884496394195743, 32.007365176083731, 0.0 ], [ 35.884321612004797, 32.007786516040952, 0.0 ], [ 35.883919705756988, 32.008178762755087, 0.0 ], [ 35.882780332707767, 32.009133902259258, 0.0 ], [ 35.882454200517763, 32.009458876611397, 0.0 ], [ 35.882332475370383, 32.009765532277569, 0.0 ], [ 35.88224419359846, 32.010123680883289, 0.0 ], [ 35.882226898264918, 32.010356121336358, 0.0 ], [ 35.881663132368729, 32.0103205127526, 0.0 ] ] ] } }
]
}
